{"type":"FeatureCollection","metadata":{"builder":"gridrisk-persistent-thermal-sources","countryCode":"TR","cellMetres":500.0,"source":"offline canonical observation history","featureCount":49,"historyStart":"2026-09-03T00:24:00","historyEnd":"2026-09-10T11:17:00","historySources":["VIIRS_NOAA21_NRT","VIIRS_NOAA20_NRT","VIIRS_SNPP_NRT","MODIS_NRT"],"historyWindowDays":7,"minDetections":12,"minUniqueDays":5,"solarRule":"OSM solar + dayCount>=3 and dayCount>=3*nightCount","unknownPolicy":"PERSISTENT_UNKNOWN is evidence-only, never hard suppression","osmEvidence":"Overpass API 2026-09-10 (power=plant 2494, man_made=chimney 1108, man_made=works 5914)"},"features":[{"type":"Feature","geometry":{"type":"Point","coordinates":[43.99331266666666,35.773543333333336]},"properties":{"countryCode":"TR","classification":"PERSISTENT_UNKNOWN","cellMetres":500.0,"radiusKm":0.75,"detectionCount":15,"uniqueDetectionDays":7,"uniqueMonths":1,"dayCount":2,"nightCount":13,"dayNightRatio":0.15384615384615385,"unknownDayNightCount":0,"medianFrpMw":4.25,"p90FrpMw":6.196,"p99FrpMw":8.515399999999998,"frpMadMw":1.2599999999999998,"centroidVarianceKm2":0.03276534272444345,"locationVarianceKm2":0.03276534272444345,"satelliteCount":3,"sourceCount":3,"sensorFamilyCount":1,"historyStart":"2026-09-03T23:22:00","historyEnd":"2026-09-09T23:54:00"}},{"type":"Feature","geometry":{"type":"Point","coordinates":[43.996546571428574,35.772776]},"properties":{"countryCode":"TR","classification":"PERSISTENT_UNKNOWN","cellMetres":500.0,"radiusKm":0.75,"detectionCount":35,"uniqueDetectionDays":7,"uniqueMonths":1,"dayCount":10,"nightCount":25,"dayNightRatio":0.4,"unknownDayNightCount":0,"medianFrpMw":5.79,"p90FrpMw":10.740000000000002,"p99FrpMw":12.450399999999997,"frpMadMw":1.71,"centroidVarianceKm2":0.04520832955813077,"locationVarianceKm2":0.04520832955813077,"satelliteCount":3,"sourceCount":3,"sensorFamilyCount":1,"historyStart":"2026-09-03T09:20:00","historyEnd":"2026-09-09T23:09:00"}},{"type":"Feature","geometry":{"type":"Point","coordinates":[43.72668125,35.952944375]},"properties":{"countryCode":"TR","classification":"PERSISTENT_UNKNOWN","cellMetres":500.0,"radiusKm":0.75,"detectionCount":16,"uniqueDetectionDays":7,"uniqueMonths":1,"dayCount":0,"nightCount":16,"dayNightRatio":0.0,"unknownDayNightCount":0,"medianFrpMw":1.45,"p90FrpMw":2.24,"p99FrpMw":3.508,"frpMadMw":0.4099999999999999,"centroidVarianceKm2":0.022042820092952532,"locationVarianceKm2":0.022042820092952532,"satelliteCount":3,"sourceCount":3,"sensorFamilyCount":1,"historyStart":"2026-09-03T22:27:00","historyEnd":"2026-09-09T22:14:00"}},{"type":"Feature","geometry":{"type":"Point","coordinates":[43.76867909090909,35.98022909090909]},"properties":{"countryCode":"TR","classification":"STATIC_INDUSTRIAL","cellMetres":500.0,"radiusKm":0.75,"detectionCount":22,"uniqueDetectionDays":6,"uniqueMonths":1,"dayCount":5,"nightCount":17,"dayNightRatio":0.29411764705882354,"unknownDayNightCount":0,"medianFrpMw":4.595,"p90FrpMw":9.079000000000002,"p99FrpMw":11.3845,"frpMadMw":1.5599999999999998,"centroidVarianceKm2":0.03227536475216967,"locationVarianceKm2":0.03227536475216967,"satelliteCount":4,"sourceCount":4,"sensorFamilyCount":2,"historyStart":"2026-09-03T23:01:00","historyEnd":"2026-09-09T23:09:00"}},{"type":"Feature","geometry":{"type":"Point","coordinates":[43.77224882352942,35.98012823529412]},"properties":{"countryCode":"TR","classification":"STATIC_INDUSTRIAL","cellMetres":500.0,"radiusKm":0.75,"detectionCount":17,"uniqueDetectionDays":7,"uniqueMonths":1,"dayCount":9,"nightCount":8,"dayNightRatio":1.125,"unknownDayNightCount":0,"medianFrpMw":5.44,"p90FrpMw":9.276,"p99FrpMw":14.890799999999999,"frpMadMw":1.2400000000000002,"centroidVarianceKm2":0.025842469351873936,"locationVarianceKm2":0.025842469351873936,"satelliteCount":3,"sourceCount":3,"sensorFamilyCount":1,"historyStart":"2026-09-03T09:20:00","historyEnd":"2026-09-09T23:54:00"}},{"type":"Feature","geometry":{"type":"Point","coordinates":[43.769795555555554,35.9831462962963]},"properties":{"countryCode":"TR","classification":"PERSISTENT_UNKNOWN","cellMetres":500.0,"radiusKm":0.75,"detectionCount":27,"uniqueDetectionDays":7,"uniqueMonths":1,"dayCount":11,"nightCount":16,"dayNightRatio":0.6875,"unknownDayNightCount":0,"medianFrpMw":4.43,"p90FrpMw":9.206000000000001,"p99FrpMw":20.60959999999998,"frpMadMw":1.4299999999999997,"centroidVarianceKm2":0.021549875261474602,"locationVarianceKm2":0.021549875261474602,"satelliteCount":3,"sourceCount":3,"sensorFamilyCount":1,"historyStart":"2026-09-03T10:43:00","historyEnd":"2026-09-09T23:54:00"}},{"type":"Feature","geometry":{"type":"Point","coordinates":[43.76143035714286,35.99814607142857]},"properties":{"countryCode":"TR","classification":"PERSISTENT_UNKNOWN","cellMetres":500.0,"radiusKm":0.75,"detectionCount":28,"uniqueDetectionDays":7,"uniqueMonths":1,"dayCount":6,"nightCount":22,"dayNightRatio":0.2727272727272727,"unknownDayNightCount":0,"medianFrpMw":3.55,"p90FrpMw":5.022,"p99FrpMw":7.729700000000001,"frpMadMw":0.9000000000000001,"centroidVarianceKm2":0.03216980016198056,"locationVarianceKm2":0.03216980016198056,"satelliteCount":3,"sourceCount":3,"sensorFamilyCount":1,"historyStart":"2026-09-03T09:20:00","historyEnd":"2026-09-09T23:54:00"}},{"type":"Feature","geometry":{"type":"Point","coordinates":[43.762457647058824,36.000562352941174]},"properties":{"countryCode":"TR","classification":"PERSISTENT_UNKNOWN","cellMetres":500.0,"radiusKm":0.75,"detectionCount":17,"uniqueDetectionDays":7,"uniqueMonths":1,"dayCount":6,"nightCount":11,"dayNightRatio":0.5454545454545454,"unknownDayNightCount":0,"medianFrpMw":2.06,"p90FrpMw":3.666000000000001,"p99FrpMw":6.7932,"frpMadMw":0.6999999999999997,"centroidVarianceKm2":0.015127195648138927,"locationVarianceKm2":0.015127195648138927,"satelliteCount":3,"sourceCount":3,"sensorFamilyCount":1,"historyStart":"2026-09-03T11:02:00","historyEnd":"2026-09-09T23:09:00"}},{"type":"Feature","geometry":{"type":"Point","coordinates":[40.810006666666666,36.13118777777778]},"properties":{"countryCode":"TR","classification":"STATIC_INDUSTRIAL","cellMetres":500.0,"radiusKm":0.75,"detectionCount":18,"uniqueDetectionDays":6,"uniqueMonths":1,"dayCount":0,"nightCount":18,"dayNightRatio":0.0,"unknownDayNightCount":0,"medianFrpMw":1.37,"p90FrpMw":1.8290000000000002,"p99FrpMw":1.8748999999999998,"frpMadMw":0.33999999999999986,"centroidVarianceKm2":0.021163506489794783,"locationVarianceKm2":0.021163506489794783,"satelliteCount":3,"sourceCount":3,"sensorFamilyCount":1,"historyStart":"2026-09-04T00:05:00","historyEnd":"2026-09-09T23:09:00"}},{"type":"Feature","geometry":{"type":"Point","coordinates":[33.72795173913043,36.262910434782604]},"properties":{"countryCode":"TR","classification":"PERSISTENT_UNKNOWN","cellMetres":500.0,"radiusKm":0.75,"detectionCount":23,"uniqueDetectionDays":8,"uniqueMonths":1,"dayCount":1,"nightCount":22,"dayNightRatio":0.045454545454545456,"unknownDayNightCount":0,"medianFrpMw":1.99,"p90FrpMw":3.278,"p99FrpMw":4.163200000000002,"frpMadMw":0.6100000000000001,"centroidVarianceKm2":0.030629562672143083,"locationVarianceKm2":0.030629562672143083,"satelliteCount":3,"sourceCount":3,"sensorFamilyCount":1,"historyStart":"2026-09-03T23:01:00","historyEnd":"2026-09-10T00:30:00"}},{"type":"Feature","geometry":{"type":"Point","coordinates":[36.19993,36.71682272727273]},"properties":{"countryCode":"TR","classification":"PERSISTENT_UNKNOWN","cellMetres":500.0,"radiusKm":0.75,"detectionCount":22,"uniqueDetectionDays":7,"uniqueMonths":1,"dayCount":5,"nightCount":17,"dayNightRatio":0.29411764705882354,"unknownDayNightCount":0,"medianFrpMw":3.37,"p90FrpMw":5.779000000000001,"p99FrpMw":10.133599999999998,"frpMadMw":0.5049999999999999,"centroidVarianceKm2":0.03246840963243493,"locationVarianceKm2":0.03246840963243493,"satelliteCount":3,"sourceCount":3,"sensorFamilyCount":1,"historyStart":"2026-09-03T00:26:00","historyEnd":"2026-09-09T23:54:00"}},{"type":"Feature","geometry":{"type":"Point","coordinates":[36.20089357142857,36.719145000000005]},"properties":{"countryCode":"TR","classification":"PERSISTENT_UNKNOWN","cellMetres":500.0,"radiusKm":0.75,"detectionCount":14,"uniqueDetectionDays":6,"uniqueMonths":1,"dayCount":5,"nightCount":9,"dayNightRatio":0.5555555555555556,"unknownDayNightCount":0,"medianFrpMw":4.3,"p90FrpMw":8.851,"p99FrpMw":10.0783,"frpMadMw":1.5650000000000004,"centroidVarianceKm2":0.01821901377702695,"locationVarianceKm2":0.01821901377702695,"satelliteCount":3,"sourceCount":3,"sensorFamilyCount":1,"historyStart":"2026-09-03T10:06:00","historyEnd":"2026-09-10T09:34:00"}},{"type":"Feature","geometry":{"type":"Point","coordinates":[36.211259166666665,36.72982625]},"properties":{"countryCode":"TR","classification":"STATIC_INDUSTRIAL","cellMetres":500.0,"radiusKm":0.75,"detectionCount":24,"uniqueDetectionDays":8,"uniqueMonths":1,"dayCount":10,"nightCount":14,"dayNightRatio":0.7142857142857143,"unknownDayNightCount":0,"medianFrpMw":2.81,"p90FrpMw":6.261,"p99FrpMw":7.29,"frpMadMw":1.1749999999999998,"centroidVarianceKm2":0.024702401481981887,"locationVarianceKm2":0.024702401481981887,"satelliteCount":3,"sourceCount":3,"sensorFamilyCount":1,"historyStart":"2026-09-03T10:41:00","historyEnd":"2026-09-10T11:15:00"}},{"type":"Feature","geometry":{"type":"Point","coordinates":[43.321963076923076,36.77549307692308]},"properties":{"countryCode":"TR","classification":"PERSISTENT_UNKNOWN","cellMetres":500.0,"radiusKm":0.75,"detectionCount":13,"uniqueDetectionDays":7,"uniqueMonths":1,"dayCount":5,"nightCount":8,"dayNightRatio":0.625,"unknownDayNightCount":0,"medianFrpMw":5.2,"p90FrpMw":9.148,"p99FrpMw":11.101599999999998,"frpMadMw":2.26,"centroidVarianceKm2":0.02169595425782078,"locationVarianceKm2":0.02169595425782078,"satelliteCount":3,"sourceCount":3,"sensorFamilyCount":1,"historyStart":"2026-09-03T23:22:00","historyEnd":"2026-09-09T22:14:00"}},{"type":"Feature","geometry":{"type":"Point","coordinates":[43.325570303030304,36.77482181818181]},"properties":{"countryCode":"TR","classification":"PERSISTENT_UNKNOWN","cellMetres":500.0,"radiusKm":0.75,"detectionCount":33,"uniqueDetectionDays":7,"uniqueMonths":1,"dayCount":13,"nightCount":20,"dayNightRatio":0.65,"unknownDayNightCount":0,"medianFrpMw":7.07,"p90FrpMw":12.12,"p99FrpMw":14.42,"frpMadMw":2.5299999999999994,"centroidVarianceKm2":0.033482228633937156,"locationVarianceKm2":0.033482228633937156,"satelliteCount":3,"sourceCount":3,"sensorFamilyCount":1,"historyStart":"2026-09-03T09:20:00","historyEnd":"2026-09-09T23:54:00"}},{"type":"Feature","geometry":{"type":"Point","coordinates":[43.32257615384616,36.778041538461544]},"properties":{"countryCode":"TR","classification":"PERSISTENT_UNKNOWN","cellMetres":500.0,"radiusKm":0.75,"detectionCount":13,"uniqueDetectionDays":7,"uniqueMonths":1,"dayCount":2,"nightCount":11,"dayNightRatio":0.18181818181818182,"unknownDayNightCount":0,"medianFrpMw":5.5,"p90FrpMw":11.936000000000002,"p99FrpMw":12.3456,"frpMadMw":2.14,"centroidVarianceKm2":0.027258792001889035,"locationVarianceKm2":0.027258792001889035,"satelliteCount":3,"sourceCount":3,"sensorFamilyCount":1,"historyStart":"2026-09-03T23:22:00","historyEnd":"2026-09-10T09:34:00"}},{"type":"Feature","geometry":{"type":"Point","coordinates":[34.76233153846154,36.86913769230769]},"properties":{"countryCode":"TR","classification":"STATIC_INDUSTRIAL","cellMetres":500.0,"radiusKm":0.75,"detectionCount":13,"uniqueDetectionDays":7,"uniqueMonths":1,"dayCount":0,"nightCount":13,"dayNightRatio":0.0,"unknownDayNightCount":0,"medianFrpMw":1.85,"p90FrpMw":3.1240000000000006,"p99FrpMw":3.3708,"frpMadMw":0.18000000000000016,"centroidVarianceKm2":0.02379216502477712,"locationVarianceKm2":0.02379216502477712,"satelliteCount":3,"sourceCount":3,"sensorFamilyCount":1,"historyStart":"2026-09-03T00:26:00","historyEnd":"2026-09-10T00:30:00"}},{"type":"Feature","geometry":{"type":"Point","coordinates":[43.487340625,36.8690796875]},"properties":{"countryCode":"TR","classification":"PERSISTENT_UNKNOWN","cellMetres":500.0,"radiusKm":0.75,"detectionCount":32,"uniqueDetectionDays":7,"uniqueMonths":1,"dayCount":10,"nightCount":22,"dayNightRatio":0.45454545454545453,"unknownDayNightCount":0,"medianFrpMw":4.005,"p90FrpMw":6.293000000000001,"p99FrpMw":9.4636,"frpMadMw":1.2000000000000002,"centroidVarianceKm2":0.027061618073833317,"locationVarianceKm2":0.027061618073833317,"satelliteCount":4,"sourceCount":4,"sensorFamilyCount":2,"historyStart":"2026-09-03T10:41:00","historyEnd":"2026-09-09T22:14:00"}},{"type":"Feature","geometry":{"type":"Point","coordinates":[43.49035823529412,36.86863411764706]},"properties":{"countryCode":"TR","classification":"PERSISTENT_UNKNOWN","cellMetres":500.0,"radiusKm":0.75,"detectionCount":17,"uniqueDetectionDays":7,"uniqueMonths":1,"dayCount":8,"nightCount":9,"dayNightRatio":0.8888888888888888,"unknownDayNightCount":0,"medianFrpMw":3.09,"p90FrpMw":4.872000000000001,"p99FrpMw":5.7588,"frpMadMw":0.5500000000000003,"centroidVarianceKm2":0.026578253305357968,"locationVarianceKm2":0.026578253305357968,"satelliteCount":3,"sourceCount":3,"sensorFamilyCount":1,"historyStart":"2026-09-03T11:02:00","historyEnd":"2026-09-10T10:11:00"}},{"type":"Feature","geometry":{"type":"Point","coordinates":[43.427545625,36.89241]},"properties":{"countryCode":"TR","classification":"PERSISTENT_UNKNOWN","cellMetres":500.0,"radiusKm":0.75,"detectionCount":16,"uniqueDetectionDays":7,"uniqueMonths":1,"dayCount":3,"nightCount":13,"dayNightRatio":0.23076923076923078,"unknownDayNightCount":0,"medianFrpMw":2.16,"p90FrpMw":2.715,"p99FrpMw":3.1999999999999997,"frpMadMw":0.3800000000000001,"centroidVarianceKm2":0.036739939915928686,"locationVarianceKm2":0.036739939915928686,"satelliteCount":3,"sourceCount":3,"sensorFamilyCount":1,"historyStart":"2026-09-03T22:27:00","historyEnd":"2026-09-09T23:54:00"}},{"type":"Feature","geometry":{"type":"Point","coordinates":[43.430753599999996,36.8917348]},"properties":{"countryCode":"TR","classification":"PERSISTENT_UNKNOWN","cellMetres":500.0,"radiusKm":0.75,"detectionCount":25,"uniqueDetectionDays":8,"uniqueMonths":1,"dayCount":8,"nightCount":17,"dayNightRatio":0.47058823529411764,"unknownDayNightCount":0,"medianFrpMw":1.96,"p90FrpMw":3.424,"p99FrpMw":5.440399999999995,"frpMadMw":0.6499999999999999,"centroidVarianceKm2":0.018405241362604453,"locationVarianceKm2":0.018405241362604453,"satelliteCount":3,"sourceCount":3,"sensorFamilyCount":1,"historyStart":"2026-09-03T09:20:00","historyEnd":"2026-09-10T10:11:00"}},{"type":"Feature","geometry":{"type":"Point","coordinates":[41.895469999999996,36.914770000000004]},"properties":{"countryCode":"TR","classification":"PERSISTENT_UNKNOWN","cellMetres":500.0,"radiusKm":0.75,"detectionCount":17,"uniqueDetectionDays":7,"uniqueMonths":1,"dayCount":0,"nightCount":17,"dayNightRatio":0.0,"unknownDayNightCount":0,"medianFrpMw":0.6,"p90FrpMw":0.9460000000000001,"p99FrpMw":1.3336,"frpMadMw":0.18,"centroidVarianceKm2":0.027301341136830807,"locationVarianceKm2":0.027301341136830807,"satelliteCount":3,"sourceCount":3,"sensorFamilyCount":1,"historyStart":"2026-09-03T23:01:00","historyEnd":"2026-09-09T23:54:00"}},{"type":"Feature","geometry":{"type":"Point","coordinates":[42.13133454545454,36.9459996969697]},"properties":{"countryCode":"TR","classification":"STATIC_INDUSTRIAL","cellMetres":500.0,"radiusKm":0.75,"detectionCount":33,"uniqueDetectionDays":7,"uniqueMonths":1,"dayCount":10,"nightCount":23,"dayNightRatio":0.43478260869565216,"unknownDayNightCount":0,"medianFrpMw":4.11,"p90FrpMw":5.742,"p99FrpMw":10.3444,"frpMadMw":1.2699999999999996,"centroidVarianceKm2":0.02913027840048596,"locationVarianceKm2":0.02913027840048596,"satelliteCount":3,"sourceCount":3,"sensorFamilyCount":1,"historyStart":"2026-09-03T11:02:00","historyEnd":"2026-09-09T23:54:00"}},{"type":"Feature","geometry":{"type":"Point","coordinates":[42.13229956521739,36.94881869565217]},"properties":{"countryCode":"TR","classification":"STATIC_INDUSTRIAL","cellMetres":500.0,"radiusKm":0.75,"detectionCount":23,"uniqueDetectionDays":7,"uniqueMonths":1,"dayCount":4,"nightCount":19,"dayNightRatio":0.21052631578947367,"unknownDayNightCount":0,"medianFrpMw":2.41,"p90FrpMw":5.2940000000000005,"p99FrpMw":6.9636000000000005,"frpMadMw":1.1199999999999997,"centroidVarianceKm2":0.023247020177846186,"locationVarianceKm2":0.023247020177846186,"satelliteCount":4,"sourceCount":4,"sensorFamilyCount":2,"historyStart":"2026-09-03T23:01:00","historyEnd":"2026-09-09T23:09:00"}},{"type":"Feature","geometry":{"type":"Point","coordinates":[42.55814615384615,37.07681153846154]},"properties":{"countryCode":"TR","classification":"PERSISTENT_UNKNOWN","cellMetres":500.0,"radiusKm":0.75,"detectionCount":13,"uniqueDetectionDays":6,"uniqueMonths":1,"dayCount":0,"nightCount":13,"dayNightRatio":0.0,"unknownDayNightCount":0,"medianFrpMw":2.16,"p90FrpMw":3.178,"p99FrpMw":3.6035999999999997,"frpMadMw":0.6200000000000001,"centroidVarianceKm2":0.029517524881851182,"locationVarianceKm2":0.029517524881851182,"satelliteCount":3,"sourceCount":3,"sensorFamilyCount":1,"historyStart":"2026-09-03T22:27:00","historyEnd":"2026-09-09T23:54:00"}},{"type":"Feature","geometry":{"type":"Point","coordinates":[38.08544235294118,37.694814117647056]},"properties":{"countryCode":"TR","classification":"PERSISTENT_UNKNOWN","cellMetres":500.0,"radiusKm":0.75,"detectionCount":17,"uniqueDetectionDays":7,"uniqueMonths":1,"dayCount":0,"nightCount":17,"dayNightRatio":0.0,"unknownDayNightCount":0,"medianFrpMw":0.91,"p90FrpMw":1.562,"p99FrpMw":1.9063999999999999,"frpMadMw":0.13,"centroidVarianceKm2":0.025571861967196553,"locationVarianceKm2":0.025571861967196553,"satelliteCount":3,"sourceCount":3,"sensorFamilyCount":1,"historyStart":"2026-09-04T23:01:00","historyEnd":"2026-09-10T00:30:00"}},{"type":"Feature","geometry":{"type":"Point","coordinates":[27.214733529411763,38.42700352941176]},"properties":{"countryCode":"TR","classification":"STATIC_INDUSTRIAL","cellMetres":500.0,"radiusKm":0.75,"detectionCount":17,"uniqueDetectionDays":8,"uniqueMonths":1,"dayCount":0,"nightCount":17,"dayNightRatio":0.0,"unknownDayNightCount":0,"medianFrpMw":1.28,"p90FrpMw":1.8,"p99FrpMw":1.902,"frpMadMw":0.26,"centroidVarianceKm2":0.016767241961281713,"locationVarianceKm2":0.016767241961281713,"satelliteCount":3,"sourceCount":3,"sensorFamilyCount":1,"historyStart":"2026-09-03T00:26:00","historyEnd":"2026-09-10T00:30:00"}},{"type":"Feature","geometry":{"type":"Point","coordinates":[26.94492375,38.737542499999996]},"properties":{"countryCode":"TR","classification":"STATIC_INDUSTRIAL","cellMetres":500.0,"radiusKm":0.75,"detectionCount":24,"uniqueDetectionDays":8,"uniqueMonths":1,"dayCount":1,"nightCount":23,"dayNightRatio":0.043478260869565216,"unknownDayNightCount":0,"medianFrpMw":1.95,"p90FrpMw":3.501,"p99FrpMw":6.547799999999999,"frpMadMw":0.4,"centroidVarianceKm2":0.028376348626270587,"locationVarianceKm2":0.028376348626270587,"satelliteCount":3,"sourceCount":3,"sensorFamilyCount":1,"historyStart":"2026-09-03T00:26:00","historyEnd":"2026-09-10T00:50:00"}},{"type":"Feature","geometry":{"type":"Point","coordinates":[26.938972500000002,38.75152166666667]},"properties":{"countryCode":"TR","classification":"STATIC_INDUSTRIAL","cellMetres":500.0,"radiusKm":0.75,"detectionCount":12,"uniqueDetectionDays":5,"uniqueMonths":1,"dayCount":0,"nightCount":12,"dayNightRatio":0.0,"unknownDayNightCount":0,"medianFrpMw":1.27,"p90FrpMw":1.623,"p99FrpMw":1.7902,"frpMadMw":0.30500000000000005,"centroidVarianceKm2":0.025276712475675017,"locationVarianceKm2":0.025276712475675017,"satelliteCount":3,"sourceCount":3,"sensorFamilyCount":1,"historyStart":"2026-09-05T23:29:00","historyEnd":"2026-09-09T23:54:00"}},{"type":"Feature","geometry":{"type":"Point","coordinates":[27.510350526315786,39.09233368421052]},"properties":{"countryCode":"TR","classification":"PERSISTENT_UNKNOWN","cellMetres":500.0,"radiusKm":0.75,"detectionCount":19,"uniqueDetectionDays":6,"uniqueMonths":1,"dayCount":0,"nightCount":19,"dayNightRatio":0.0,"unknownDayNightCount":0,"medianFrpMw":1.1,"p90FrpMw":1.5699999999999998,"p99FrpMw":2.1492,"frpMadMw":0.16000000000000014,"centroidVarianceKm2":0.025892867079841866,"locationVarianceKm2":0.025892867079841866,"satelliteCount":3,"sourceCount":3,"sensorFamilyCount":1,"historyStart":"2026-09-03T00:26:00","historyEnd":"2026-09-09T23:54:00"}},{"type":"Feature","geometry":{"type":"Point","coordinates":[27.51442033333333,39.09222833333333]},"properties":{"countryCode":"TR","classification":"PERSISTENT_UNKNOWN","cellMetres":500.0,"radiusKm":0.75,"detectionCount":30,"uniqueDetectionDays":8,"uniqueMonths":1,"dayCount":0,"nightCount":30,"dayNightRatio":0.0,"unknownDayNightCount":0,"medianFrpMw":1.025,"p90FrpMw":2.172,"p99FrpMw":2.5065,"frpMadMw":0.3549999999999999,"centroidVarianceKm2":0.026059549160620612,"locationVarianceKm2":0.026059549160620612,"satelliteCount":3,"sourceCount":3,"sensorFamilyCount":1,"historyStart":"2026-09-03T01:02:00","historyEnd":"2026-09-10T00:50:00"}},{"type":"Feature","geometry":{"type":"Point","coordinates":[27.52366588235294,39.11509235294118]},"properties":{"countryCode":"TR","classification":"PERSISTENT_UNKNOWN","cellMetres":500.0,"radiusKm":0.75,"detectionCount":17,"uniqueDetectionDays":8,"uniqueMonths":1,"dayCount":0,"nightCount":17,"dayNightRatio":0.0,"unknownDayNightCount":0,"medianFrpMw":0.81,"p90FrpMw":1.1280000000000001,"p99FrpMw":1.4616,"frpMadMw":0.19000000000000006,"centroidVarianceKm2":0.03645302949256353,"locationVarianceKm2":0.03645302949256353,"satelliteCount":3,"sourceCount":3,"sensorFamilyCount":1,"historyStart":"2026-09-03T00:26:00","historyEnd":"2026-09-10T00:30:00"}},{"type":"Feature","geometry":{"type":"Point","coordinates":[30.039680833333335,39.48435166666667]},"properties":{"countryCode":"TR","classification":"STATIC_INDUSTRIAL","cellMetres":500.0,"radiusKm":0.75,"detectionCount":12,"uniqueDetectionDays":5,"uniqueMonths":1,"dayCount":0,"nightCount":12,"dayNightRatio":0.0,"unknownDayNightCount":0,"medianFrpMw":1.04,"p90FrpMw":1.395,"p99FrpMw":2.1932000000000005,"frpMadMw":0.18,"centroidVarianceKm2":0.012422947738646281,"locationVarianceKm2":0.012422947738646281,"satelliteCount":3,"sourceCount":3,"sensorFamilyCount":1,"historyStart":"2026-09-04T00:05:00","historyEnd":"2026-09-09T00:48:00"}},{"type":"Feature","geometry":{"type":"Point","coordinates":[26.2430975,39.86542333333333]},"properties":{"countryCode":"TR","classification":"STATIC_INDUSTRIAL","cellMetres":500.0,"radiusKm":0.75,"detectionCount":24,"uniqueDetectionDays":8,"uniqueMonths":1,"dayCount":0,"nightCount":24,"dayNightRatio":0.0,"unknownDayNightCount":0,"medianFrpMw":1.6549999999999998,"p90FrpMw":3.093,"p99FrpMw":3.5739,"frpMadMw":0.44999999999999996,"centroidVarianceKm2":0.023250404489982335,"locationVarianceKm2":0.023250404489982335,"satelliteCount":3,"sourceCount":3,"sensorFamilyCount":1,"historyStart":"2026-09-03T00:26:00","historyEnd":"2026-09-10T00:50:00"}},{"type":"Feature","geometry":{"type":"Point","coordinates":[33.19190785714286,39.94442214285714]},"properties":{"countryCode":"TR","classification":"PERSISTENT_UNKNOWN","cellMetres":500.0,"radiusKm":0.75,"detectionCount":14,"uniqueDetectionDays":6,"uniqueMonths":1,"dayCount":0,"nightCount":14,"dayNightRatio":0.0,"unknownDayNightCount":0,"medianFrpMw":1.3,"p90FrpMw":1.57,"p99FrpMw":1.5874000000000001,"frpMadMw":0.26,"centroidVarianceKm2":0.020036368161223856,"locationVarianceKm2":0.020036368161223856,"satelliteCount":3,"sourceCount":3,"sensorFamilyCount":1,"historyStart":"2026-09-03T23:01:00","historyEnd":"2026-09-09T23:07:00"}},{"type":"Feature","geometry":{"type":"Point","coordinates":[32.64989352941176,40.04956529411765]},"properties":{"countryCode":"TR","classification":"STATIC_INDUSTRIAL","cellMetres":500.0,"radiusKm":0.75,"detectionCount":17,"uniqueDetectionDays":7,"uniqueMonths":1,"dayCount":0,"nightCount":17,"dayNightRatio":0.0,"unknownDayNightCount":0,"medianFrpMw":0.93,"p90FrpMw":1.122,"p99FrpMw":1.1867999999999999,"frpMadMw":0.09999999999999998,"centroidVarianceKm2":0.021096091304902496,"locationVarianceKm2":0.021096091304902496,"satelliteCount":3,"sourceCount":3,"sensorFamilyCount":1,"historyStart":"2026-09-03T23:01:00","historyEnd":"2026-09-09T23:54:00"}},{"type":"Feature","geometry":{"type":"Point","coordinates":[29.924466666666667,40.24213666666667]},"properties":{"countryCode":"TR","classification":"PERSISTENT_UNKNOWN","cellMetres":500.0,"radiusKm":0.75,"detectionCount":15,"uniqueDetectionDays":8,"uniqueMonths":1,"dayCount":0,"nightCount":15,"dayNightRatio":0.0,"unknownDayNightCount":0,"medianFrpMw":0.94,"p90FrpMw":1.288,"p99FrpMw":1.3544,"frpMadMw":0.14000000000000012,"centroidVarianceKm2":0.040982106303338636,"locationVarianceKm2":0.040982106303338636,"satelliteCount":3,"sourceCount":3,"sensorFamilyCount":1,"historyStart":"2026-09-03T23:01:00","historyEnd":"2026-09-10T00:50:00"}},{"type":"Feature","geometry":{"type":"Point","coordinates":[28.555028461538463,41.01983346153846]},"properties":{"countryCode":"TR","classification":"STATIC_INDUSTRIAL","cellMetres":500.0,"radiusKm":0.75,"detectionCount":26,"uniqueDetectionDays":7,"uniqueMonths":1,"dayCount":3,"nightCount":23,"dayNightRatio":0.13043478260869565,"unknownDayNightCount":0,"medianFrpMw":1.9049999999999998,"p90FrpMw":2.2649999999999997,"p99FrpMw":3.28,"frpMadMw":0.32999999999999996,"centroidVarianceKm2":0.029629410685399152,"locationVarianceKm2":0.029629410685399152,"satelliteCount":3,"sourceCount":3,"sensorFamilyCount":1,"historyStart":"2026-09-03T00:24:00","historyEnd":"2026-09-09T23:54:00"}},{"type":"Feature","geometry":{"type":"Point","coordinates":[28.555385384615384,41.022224615384616]},"properties":{"countryCode":"TR","classification":"STATIC_INDUSTRIAL","cellMetres":500.0,"radiusKm":0.75,"detectionCount":13,"uniqueDetectionDays":6,"uniqueMonths":1,"dayCount":0,"nightCount":13,"dayNightRatio":0.0,"unknownDayNightCount":0,"medianFrpMw":1.27,"p90FrpMw":1.6660000000000001,"p99FrpMw":2.0555999999999996,"frpMadMw":0.15999999999999992,"centroidVarianceKm2":0.03197593685906543,"locationVarianceKm2":0.03197593685906543,"satelliteCount":3,"sourceCount":3,"sensorFamilyCount":1,"historyStart":"2026-09-04T00:05:00","historyEnd":"2026-09-10T00:50:00"}},{"type":"Feature","geometry":{"type":"Point","coordinates":[32.632713333333335,41.17600888888889]},"properties":{"countryCode":"TR","classification":"STATIC_INDUSTRIAL","cellMetres":500.0,"radiusKm":0.75,"detectionCount":27,"uniqueDetectionDays":8,"uniqueMonths":1,"dayCount":1,"nightCount":26,"dayNightRatio":0.038461538461538464,"unknownDayNightCount":0,"medianFrpMw":1.75,"p90FrpMw":2.5140000000000002,"p99FrpMw":3.323199999999999,"frpMadMw":0.5800000000000001,"centroidVarianceKm2":0.0373502827591624,"locationVarianceKm2":0.0373502827591624,"satelliteCount":3,"sourceCount":3,"sensorFamilyCount":1,"historyStart":"2026-09-03T00:24:00","historyEnd":"2026-09-10T00:48:00"}},{"type":"Feature","geometry":{"type":"Point","coordinates":[32.6340925,41.180105000000005]},"properties":{"countryCode":"TR","classification":"STATIC_INDUSTRIAL","cellMetres":500.0,"radiusKm":0.75,"detectionCount":12,"uniqueDetectionDays":6,"uniqueMonths":1,"dayCount":0,"nightCount":12,"dayNightRatio":0.0,"unknownDayNightCount":0,"medianFrpMw":0.99,"p90FrpMw":1.712,"p99FrpMw":1.8179,"frpMadMw":0.235,"centroidVarianceKm2":0.022708240164208027,"locationVarianceKm2":0.022708240164208027,"satelliteCount":3,"sourceCount":3,"sensorFamilyCount":1,"historyStart":"2026-09-03T23:01:00","historyEnd":"2026-09-09T00:48:00"}},{"type":"Feature","geometry":{"type":"Point","coordinates":[36.46417105263158,41.24075263157895]},"properties":{"countryCode":"TR","classification":"PERSISTENT_UNKNOWN","cellMetres":500.0,"radiusKm":0.75,"detectionCount":19,"uniqueDetectionDays":7,"uniqueMonths":1,"dayCount":9,"nightCount":10,"dayNightRatio":0.9,"unknownDayNightCount":0,"medianFrpMw":4.88,"p90FrpMw":10.414,"p99FrpMw":17.577800000000003,"frpMadMw":2.95,"centroidVarianceKm2":0.018891156575416585,"locationVarianceKm2":0.018891156575416585,"satelliteCount":4,"sourceCount":4,"sensorFamilyCount":2,"historyStart":"2026-09-03T10:09:00","historyEnd":"2026-09-09T23:52:00"}},{"type":"Feature","geometry":{"type":"Point","coordinates":[36.46454,41.24312875]},"properties":{"countryCode":"TR","classification":"PERSISTENT_UNKNOWN","cellMetres":500.0,"radiusKm":0.75,"detectionCount":32,"uniqueDetectionDays":8,"uniqueMonths":1,"dayCount":12,"nightCount":20,"dayNightRatio":0.6,"unknownDayNightCount":0,"medianFrpMw":4.825,"p90FrpMw":7.713000000000001,"p99FrpMw":11.143100000000002,"frpMadMw":1.6450000000000002,"centroidVarianceKm2":0.023817363389211952,"locationVarianceKm2":0.023817363389211952,"satelliteCount":5,"sourceCount":4,"sensorFamilyCount":2,"historyStart":"2026-09-03T00:24:00","historyEnd":"2026-09-10T11:17:00"}},{"type":"Feature","geometry":{"type":"Point","coordinates":[31.41142944444444,41.253527222222225]},"properties":{"countryCode":"TR","classification":"STATIC_INDUSTRIAL","cellMetres":500.0,"radiusKm":0.75,"detectionCount":18,"uniqueDetectionDays":8,"uniqueMonths":1,"dayCount":3,"nightCount":15,"dayNightRatio":0.2,"unknownDayNightCount":0,"medianFrpMw":1.725,"p90FrpMw":4.707000000000001,"p99FrpMw":6.405699999999999,"frpMadMw":0.665,"centroidVarianceKm2":0.014930434582511802,"locationVarianceKm2":0.014930434582511802,"satelliteCount":3,"sourceCount":3,"sensorFamilyCount":1,"historyStart":"2026-09-03T01:00:00","historyEnd":"2026-09-10T11:17:00"}},{"type":"Feature","geometry":{"type":"Point","coordinates":[31.41240176470588,41.25649529411765]},"properties":{"countryCode":"TR","classification":"STATIC_INDUSTRIAL","cellMetres":500.0,"radiusKm":0.75,"detectionCount":17,"uniqueDetectionDays":8,"uniqueMonths":1,"dayCount":1,"nightCount":16,"dayNightRatio":0.0625,"unknownDayNightCount":0,"medianFrpMw":1.54,"p90FrpMw":2.92,"p99FrpMw":3.0675999999999997,"frpMadMw":0.53,"centroidVarianceKm2":0.014142850728965794,"locationVarianceKm2":0.014142850728965794,"satelliteCount":3,"sourceCount":3,"sensorFamilyCount":1,"historyStart":"2026-09-03T01:00:00","historyEnd":"2026-09-10T00:48:00"}},{"type":"Feature","geometry":{"type":"Point","coordinates":[31.430037499999997,41.2579075]},"properties":{"countryCode":"TR","classification":"PERSISTENT_UNKNOWN","cellMetres":500.0,"radiusKm":0.75,"detectionCount":12,"uniqueDetectionDays":7,"uniqueMonths":1,"dayCount":1,"nightCount":11,"dayNightRatio":0.09090909090909091,"unknownDayNightCount":0,"medianFrpMw":1.315,"p90FrpMw":2.301,"p99FrpMw":3.3713000000000006,"frpMadMw":0.4850000000000001,"centroidVarianceKm2":0.026183199295037932,"locationVarianceKm2":0.026183199295037932,"satelliteCount":3,"sourceCount":3,"sensorFamilyCount":1,"historyStart":"2026-09-03T00:24:00","historyEnd":"2026-09-09T23:07:00"}},{"type":"Feature","geometry":{"type":"Point","coordinates":[31.426438888888892,41.261928148148144]},"properties":{"countryCode":"TR","classification":"STATIC_INDUSTRIAL","cellMetres":500.0,"radiusKm":0.75,"detectionCount":27,"uniqueDetectionDays":8,"uniqueMonths":1,"dayCount":4,"nightCount":23,"dayNightRatio":0.17391304347826086,"unknownDayNightCount":0,"medianFrpMw":1.84,"p90FrpMw":6.1060000000000025,"p99FrpMw":11.3574,"frpMadMw":0.6500000000000001,"centroidVarianceKm2":0.04225387107914237,"locationVarianceKm2":0.04225387107914237,"satelliteCount":4,"sourceCount":4,"sensorFamilyCount":2,"historyStart":"2026-09-03T01:00:00","historyEnd":"2026-09-10T00:30:00"}},{"type":"Feature","geometry":{"type":"Point","coordinates":[31.423193846153843,41.26608769230769]},"properties":{"countryCode":"TR","classification":"STATIC_INDUSTRIAL","cellMetres":500.0,"radiusKm":0.75,"detectionCount":26,"uniqueDetectionDays":7,"uniqueMonths":1,"dayCount":1,"nightCount":25,"dayNightRatio":0.04,"unknownDayNightCount":0,"medianFrpMw":1.8900000000000001,"p90FrpMw":3.9400000000000004,"p99FrpMw":5.2225,"frpMadMw":0.5900000000000001,"centroidVarianceKm2":0.039639299010038785,"locationVarianceKm2":0.039639299010038785,"satelliteCount":3,"sourceCount":3,"sensorFamilyCount":1,"historyStart":"2026-09-04T23:01:00","historyEnd":"2026-09-10T00:48:00"}},{"type":"Feature","geometry":{"type":"Point","coordinates":[31.427073333333336,41.26483583333333]},"properties":{"countryCode":"TR","classification":"STATIC_INDUSTRIAL","cellMetres":500.0,"radiusKm":0.75,"detectionCount":12,"uniqueDetectionDays":6,"uniqueMonths":1,"dayCount":0,"nightCount":12,"dayNightRatio":0.0,"unknownDayNightCount":0,"medianFrpMw":1.67,"p90FrpMw":1.9999999999999998,"p99FrpMw":2.7309,"frpMadMw":0.33499999999999985,"centroidVarianceKm2":0.028805594115048374,"locationVarianceKm2":0.028805594115048374,"satelliteCount":3,"sourceCount":3,"sensorFamilyCount":1,"historyStart":"2026-09-03T00:24:00","historyEnd":"2026-09-10T00:48:00"}}]}