{"type":"FeatureCollection","metadata":{"countryCode":"PT","countryNameTr":"Portekiz","coverage":"Portekiz ana karası; Azorlar ve Madeira kapsam dışıdır","source":"European Commission, Eurostat/GISCO — Countries 2024","sourceUrl":"https://gisco-services.ec.europa.eu/distribution/v2/countries/geojson/CNTR_RG_01M_2024_4326.geojson","scale":"1:1 million","crs":"EPSG:4326","copyright":"© EuroGeographics for the administrative boundaries"},"features":[{"type":"Feature","properties":{"countryCode":"PT","countryNameTr":"Portekiz","coverage":"Portekiz ana karası; Azorlar ve Madeira kapsam dışıdır","source":"Eurostat/GISCO Countries 2024","copyright":"© EuroGeographics for the administrative boundaries"},"geometry":{"type":"MultiPolygon","coordinates":[[[[-8.189609183999949,42.13713843200003],[-8.192845683999963,42.12637297100008],[-8.189866060999975,42.115535597000076],[-8.186194469999975,42.09760673000005],[-8.186236544999929,42.09141420800006],[-8.186355525999943,42.07390269600006],[-8.18389824899998,42.069400872000074],[-8.174838601999966,42.06700478600004],[-8.159487610999975,42.07488167100007],[-8.151251302999981,42.07910787800006],[-8.139883915999974,42.07705810700003],[-8.13766163899993,42.07665738500003],[-8.135796065999955,42.07751194700006],[-8.124836651999942,42.08253211700003],[-8.118478066999955,42.08212304300008],[-8.107219184999963,42.076297956000076],[-8.104496236999978,42.07460786200005],[-8.096695325999974,42.07091627900007],[-8.086929423999948,42.05336347900004],[-8.083178988999975,42.03612379500004],[-8.084688339999957,42.02364497100007],[-8.085179403999973,42.019585016000065],[-8.088231063999956,42.01504868000006],[-8.094315646999974,42.012840562000065],[-8.103983490999951,42.00916650700003],[-8.11452812999994,42.00515924500007],[-8.126593328999945,42.00530618600004],[-8.137829722999982,41.99266938900007],[-8.141339388999938,41.98872231000007],[-8.152720120999959,41.985411604000035],[-8.16222479299995,41.982646653000074],[-8.163466652999944,41.977922610000064],[-8.165004031999956,41.97207441200004],[-8.169357457999979,41.96435669300007],[-8.175317285999938,41.96056605200005],[-8.176289510999936,41.95536939100003],[-8.188858008999944,41.946264015000054],[-8.197134963999929,41.94026769100003],[-8.210223245999941,41.92369412100004],[-8.213244885999927,41.91835612600005],[-8.216412593999962,41.91276008900007],[-8.213682868999967,41.900635075000025],[-8.20384840099996,41.89122124000005],[-8.198636129999954,41.88052586200007],[-8.199688820999938,41.87565515400007],[-8.197163581999973,41.87529144400003],[-8.188769018999949,41.875900010000066],[-8.170263015999979,41.87724160700003],[-8.168254469999965,41.87033449200004],[-8.167129013999954,41.86646420500006],[-8.166326700999946,41.86370516000005],[-8.16188647599995,41.85837496200003],[-8.165075344999934,41.81830214400003],[-8.152576135999936,41.81747386500007],[-8.129008226999929,41.80906475000006],[-8.106765663999965,41.81223642800006],[-8.095505684999978,41.80939282700007],[-8.058165870999972,41.816756948000034],[-8.051862724999978,41.82061392600008],[-8.044991424999978,41.824081628000044],[-8.036573030999932,41.830124270000056],[-8.021328626999946,41.83008839300004],[-8.013315409999962,41.830069535000064],[-8.007324843999982,41.83923247700005],[-8.00008055799998,41.850313062000055],[-7.990075859999934,41.859948306000035],[-7.987792046999971,41.86785356300004],[-7.980831829999943,41.87239441000003],[-7.971423658999981,41.875344548000044],[-7.962713522999934,41.87394046800006],[-7.946255336999968,41.87128739600007],[-7.922070684999937,41.87947833700008],[-7.910149846999957,41.90569010200005],[-7.910092814999928,41.90581550500008],[-7.909230511999965,41.91835612600005],[-7.909035919999951,41.92118611500007],[-7.905759465999949,41.92737955600006],[-7.88854798899996,41.92681341400004],[-7.884090366999942,41.92228985000003],[-7.88480115599998,41.91835612600005],[-7.88640473199996,41.909481440000036],[-7.886997776999976,41.90619934800003],[-7.886750524999968,41.903823567000074],[-7.884415000999979,41.88138209500005],[-7.889018361999945,41.866717150000056],[-7.891440512999964,41.859000895000065],[-7.874622361999968,41.85078263400004],[-7.864889783999956,41.85892377000005],[-7.862409689999936,41.86099832700006],[-7.85586856499998,41.862378369000055],[-7.845579115999954,41.86454923000008],[-7.842698620999954,41.86942147900004],[-7.843069802999935,41.87365588500006],[-7.843717192999975,41.881041234000065],[-7.835012545999973,41.881271765000065],[-7.812701257999947,41.88186265000007],[-7.802576604999956,41.88215194400004],[-7.775039965999952,41.89003415900004],[-7.770610553999973,41.89341093100006],[-7.763364731999957,41.89893480100005],[-7.754584922999925,41.89847004100005],[-7.751448979999964,41.897022707000076],[-7.744249510999964,41.893699930000025],[-7.725957473999927,41.898578601000054],[-7.722326542999951,41.900783397000055],[-7.714994639999929,41.90389400500004],[-7.71370320699998,41.904441904000066],[-7.704728265999961,41.90762331900004],[-7.704082489999962,41.90785191100008],[-7.693782633999945,41.90567367700004],[-7.684088737999957,41.898377141000026],[-7.67868959499998,41.89431324000003],[-7.674556050999968,41.893734736000056],[-7.669097617999967,41.892970810000065],[-7.662311686999942,41.887771748000034],[-7.654910380999979,41.882101215000034],[-7.638997930999949,41.88011941800005],[-7.627102138999931,41.88021357900004],[-7.625223861999928,41.88102725600004],[-7.617198960999929,41.884503675000076],[-7.60798222699998,41.88020413100003],[-7.60686878599995,41.87968471800008],[-7.602588641999944,41.879946638000035],[-7.599370802999942,41.88014355100006],[-7.586159301999942,41.88095201600004],[-7.584597398999961,41.877025511000056],[-7.593859322999947,41.87140440600007],[-7.599370802999942,41.868059463000066],[-7.601136925999981,41.86698759500007],[-7.60109399199996,41.86076195700008],[-7.61214309099995,41.84549858500003],[-7.614798058999952,41.83353951300006],[-7.611814895999942,41.829475417000026],[-7.599370802999942,41.83265770700007],[-7.573184889999936,41.83069976300004],[-7.541382330999966,41.83708951300008],[-7.521065600999975,41.84194158100007],[-7.506426075999968,41.850485019000075],[-7.50893929199998,41.855632452000066],[-7.512357725999948,41.86263390200003],[-7.502716235999969,41.869261994000055],[-7.491888046999975,41.87083747200006],[-7.489192898999931,41.86790478300003],[-7.483638668999959,41.86186102000005],[-7.464766315999952,41.86387990900005],[-7.452781128999959,41.86516203700006],[-7.446205497999927,41.85683446000007],[-7.447206878999964,41.85439502400004],[-7.448544720999962,41.851135946000056],[-7.44540950399994,41.84179381800004],[-7.438885674999938,41.838708748000045],[-7.426733320999972,41.83296199000006],[-7.425668952999956,41.82813193100003],[-7.429363108999951,41.82311570500008],[-7.425154064999958,41.81674097900003],[-7.426301903999956,41.81498712000007],[-7.428406719999941,41.81177103200008],[-7.427273714999956,41.80749957200004],[-7.417897722999953,41.81147015700003],[-7.39620500999996,41.82788280800003],[-7.394019012999934,41.83218796600005],[-7.389087153999981,41.84190089400005],[-7.363812337999946,41.85273350700004],[-7.361343009999928,41.84861948900004],[-7.357378547999929,41.842014508000034],[-7.326024686999972,41.844271856000034],[-7.313345665999975,41.84379609200005],[-7.30886567899995,41.84646588900006],[-7.300341411999966,41.85154582800004],[-7.290341731999945,41.85215348300005],[-7.285816748999935,41.85242845400006],[-7.276786474999938,41.85631548900005],[-7.251609886999972,41.86715262300004],[-7.239984037999932,41.867615311000066],[-7.23193368699998,41.86793570100008],[-7.222496092999961,41.87298481100004],[-7.210185518999936,41.87957096400004],[-7.20046440599998,41.87974942100004],[-7.195520860999977,41.88225176200007],[-7.186037547999945,41.89599465600003],[-7.182616407999944,41.91205190900007],[-7.182030564999934,41.91323863700006],[-7.176048750999939,41.91835612600005],[-7.175723818999927,41.92133474800005],[-7.181426319999957,41.93236175000004],[-7.185778742999958,41.94077808900005],[-7.182774251999945,41.95195148800008],[-7.18567593399996,41.95849247900003],[-7.184726542999954,41.972461503000034],[-7.176237309999976,41.979812270000025],[-7.170357443999933,41.97903019600005],[-7.157593651999946,41.977332499000056],[-7.153654679999931,41.98266514800008],[-7.15092044499994,41.986366804000056],[-7.141826303999949,41.99028997600004],[-7.115357785999947,41.98369990600003],[-7.08813033399997,41.97362312900003],[-7.080450531999929,41.96027691100005],[-7.075305673999935,41.95133600300005],[-7.054222763999974,41.94917774500004],[-7.052290381999967,41.95022152100006],[-7.044087364999939,41.95465238200006],[-7.034326351999937,41.95098760600007],[-7.03032275299995,41.95084899500006],[-7.008723883999949,41.95010120500007],[-7.002505958999961,41.95798852000007],[-6.998864178999952,41.96260804600007],[-6.985800483999981,41.971447057000034],[-6.977297154999974,41.97361835800007],[-6.958326925999927,41.96894974300005],[-6.953160236999963,41.96051488300003],[-6.943593286999942,41.94489639100004],[-6.93574861899998,41.94598584400006],[-6.933738754999979,41.94626497000007],[-6.930353529999934,41.945854946000054],[-6.885401691999959,41.940410307000036],[-6.875737441999945,41.94452982900003],[-6.871924107999973,41.946155316000045],[-6.863511715999948,41.94505744800006],[-6.855753657999969,41.944044975000054],[-6.845331268999928,41.942684790000044],[-6.831010959999958,41.944118512000045],[-6.821102260999965,41.94722364000006],[-6.811496330999944,41.96738799600007],[-6.810209272999941,41.97019939900008],[-6.811044459999948,41.98499493400004],[-6.811469859999931,41.99253099600003],[-6.805578462999961,41.990916998000046],[-6.802518168999939,41.990562166000075],[-6.796917785999938,41.98991281700006],[-6.780839580999952,41.988048595000066],[-6.768688805999943,41.983905951000054],[-6.76699001399993,41.97684331500005],[-6.76597753599998,41.97263398900003],[-6.749992311999961,41.94358204800005],[-6.720734291999975,41.938018673000045],[-6.706292234999978,41.93527253500008],[-6.696895845999961,41.93358172000006],[-6.677048790999947,41.93634718800007],[-6.637600249999934,41.94184390700008],[-6.627139779999936,41.94140517500006],[-6.618847805999962,41.94105739300005],[-6.611510160999956,41.94714966600003],[-6.598738569999966,41.94948313400005],[-6.591508611999927,41.96234208300007],[-6.58846129099993,41.96776194100005],[-6.583211673999926,41.96538566400005],[-6.580031591999955,41.963315032000025],[-6.577563503999954,41.961707997000076],[-6.577483905999941,41.96168618000007],[-6.573791231999962,41.96067406700007],[-6.561254781999935,41.95266351600003],[-6.55637874699994,41.94871506700008],[-6.552586995999945,41.946239640000044],[-6.549125375999949,41.944511539000075],[-6.545839058999945,41.93593943500008],[-6.545971409999936,41.93068690100006],[-6.552927731999944,41.91835612600005],[-6.55686193899993,41.91138235200003],[-6.56064615799994,41.89761870500007],[-6.564469739999936,41.892540893000046],[-6.571177660999979,41.88363260600005],[-6.549318078999931,41.87946291800006],[-6.517026769999973,41.873303390000046],[-6.517760056999975,41.86817957900007],[-6.521714781999947,41.86378488500003],[-6.524554768999963,41.86062894400004],[-6.523577413999931,41.85560128600008],[-6.523289815999931,41.85412184100005],[-6.524599830999932,41.85110922700005],[-6.531316422999964,41.83566322000007],[-6.530270746999975,41.82619367800004],[-6.529635996999957,41.82044545000008],[-6.53314818399997,41.81716447900004],[-6.537622766999959,41.81298446900007],[-6.546078838999961,41.793949618000056],[-6.545458608999979,41.789278455000044],[-6.544745632999934,41.783908789000066],[-6.554885919999947,41.76762783000004],[-6.556044365999981,41.75654186600008],[-6.561451190999946,41.75305147300003],[-6.564953389999971,41.750790617000064],[-6.568127229999959,41.744304820000025],[-6.562616100999946,41.74093716700003],[-6.55681878799993,41.73739463600003],[-6.557428769999945,41.730068258000074],[-6.555534051999928,41.72627900500004],[-6.550503914999979,41.72505120400007],[-6.55334716599998,41.72138926000008],[-6.553940074999957,41.72062562700006],[-6.549029583999925,41.71228361100003],[-6.543083047999971,41.70218154600008],[-6.545602450999979,41.69981059200006],[-6.546164468999962,41.69989281800008],[-6.553184612999928,41.70091989500003],[-6.55348399099995,41.693500517000075],[-6.548242364999965,41.68563848500003],[-6.541843036999978,41.680423579000035],[-6.536900076999927,41.67774714300003],[-6.534637612999973,41.676521354000045],[-6.527685902999963,41.675041125000064],[-6.525796520999961,41.67297367200007],[-6.519132988999957,41.66883856600003],[-6.518204528999945,41.66678583700008],[-6.515032583999925,41.66455059300006],[-6.512102367999944,41.66126232100004],[-6.500208197999939,41.65749289400003],[-6.48850198699995,41.65768750500007],[-6.471551357999942,41.66515733700004],[-6.469442157999936,41.66608682300006],[-6.467092757999978,41.66634094500006],[-6.458426237999959,41.667278355000064],[-6.456038216999957,41.67210664600003],[-6.45134545999997,41.681594834000066],[-6.439796902999944,41.684200614000076],[-6.43238876099997,41.681746463000025],[-6.425923955999963,41.67960481800003],[-6.419457719999969,41.67994808000003],[-6.412942308999959,41.680293952000056],[-6.405803368999955,41.68067292500007],[-6.378255373999934,41.67445767900006],[-6.373710286999938,41.67399479100004],[-6.357863441999939,41.67709189300007],[-6.322497861999977,41.666984322000076],[-6.319628577999936,41.66690037600006],[-6.315445956999952,41.66548265700004],[-6.315364356999964,41.66545499800003],[-6.309171910999964,41.66418326400003],[-6.302935785999978,41.66290256000008],[-6.288736161999964,41.65660650700005],[-6.254917774999967,41.63405600500005],[-6.241032738999934,41.615324506000036],[-6.234897537999927,41.60704786000008],[-6.226301143999933,41.60399976200006],[-6.202762777999965,41.59565355800004],[-6.189352081999971,41.57504660300003],[-6.19601870799994,41.57067050200004],[-6.209054691999938,41.562113433000036],[-6.215684769999939,41.55298148300005],[-6.216760367999939,41.54939213400007],[-6.219214981999926,41.54120091400006],[-6.240701532999935,41.52048518600003],[-6.249292922999928,41.516017774000034],[-6.255163489999973,41.51296515400003],[-6.25417624499994,41.50869347400004],[-6.252125679999949,41.499820949000025],[-6.260192213999972,41.49733812300008],[-6.266688009999939,41.49533876000004],[-6.264084976999925,41.48999039700004],[-6.262384232999977,41.48649593600004],[-6.266234920999977,41.48643718100004],[-6.269080434999978,41.48639376300008],[-6.285374966999939,41.47800255300007],[-6.285862277999968,41.47343689300004],[-6.28657336699996,41.466774636000025],[-6.298998642999948,41.454774335000025],[-6.30598936399997,41.44802271400005],[-6.302892480999958,41.444784269000024],[-6.296958629999949,41.438579176000076],[-6.296847969999931,41.43304264200003],[-6.310468895999975,41.419085153000026],[-6.319751794999945,41.41702385700006],[-6.328023693999967,41.415187056000036],[-6.333195673999967,41.40943124800003],[-6.331253931999981,41.40515558200008],[-6.324514529999931,41.401627896000036],[-6.319021564999957,41.39875264700004],[-6.316501188999951,41.390731198000026],[-6.318309555999974,41.38614262400006],[-6.326493089999929,41.386802885000066],[-6.326678676999961,41.38681785800003],[-6.328705145999947,41.38615209500006],[-6.35201722499994,41.37849328900006],[-6.361404160999939,41.38309170100007],[-6.364050353999971,41.38776013000006],[-6.36688726899996,41.392765034000035],[-6.373710286999938,41.39046920800007],[-6.391473059999953,41.38374702400006],[-6.393061411999952,41.37019554900007],[-6.387475923999943,41.36428644000006],[-6.386301809999964,41.36393446400007],[-6.377753052999935,41.36137172000008],[-6.387203844999931,41.35332088000007],[-6.39981049599993,41.35104971700008],[-6.412942308999959,41.348683943000026],[-6.419983607999939,41.343623999000044],[-6.42615197799995,41.334001562000026],[-6.424614644999963,41.331959450000056],[-6.420370322999929,41.32632151700005],[-6.432863340999972,41.31961491100003],[-6.435122044999957,41.31840237400007],[-6.436473130999957,41.31421269900005],[-6.439594682999939,41.30453286200003],[-6.455760011999928,41.29842633800007],[-6.460982396999952,41.29921613600004],[-6.469721349999929,41.30053775600004],[-6.479713167999932,41.29437983400004],[-6.49099468299994,41.285965446000034],[-6.484061360999931,41.28047484700005],[-6.480273850999936,41.27747546300003],[-6.480443630999957,41.274532873000055],[-6.501112184999954,41.26514816700006],[-6.511368170999958,41.26482893300005],[-6.514311261999978,41.268770620000055],[-6.519146972999977,41.275247095000054],[-6.545991252999954,41.258103609000045],[-6.548940261999974,41.25296283100005],[-6.553079054999955,41.245747994000055],[-6.567408884999963,41.24270218200007],[-6.571266561999948,41.23906308800008],[-6.57643027499995,41.23882310300007],[-6.58134776299994,41.23952465200006],[-6.585584938999943,41.24384560200008],[-6.586160165999956,41.24698035000006],[-6.587097915999948,41.25209069300007],[-6.591189185999951,41.25469180500005],[-6.594285662999937,41.25095529500004],[-6.599259422999978,41.24495347200008],[-6.60886168899998,41.249290150000036],[-6.608934610999938,41.249323084000025],[-6.609162754999943,41.24925575700007],[-6.630123797999943,41.24306998000003],[-6.640940850999925,41.24562547100004],[-6.647899177999932,41.247269352000046],[-6.651000694999937,41.24073206000003],[-6.653042866999954,41.23642762600008],[-6.662765064999974,41.22996708000005],[-6.68011873699993,41.21843530600006],[-6.690603498999963,41.20871450200008],[-6.689786233999939,41.20524137500007],[-6.689670201999945,41.19862167200006],[-6.695973988999981,41.19413818600003],[-6.697987652999927,41.19270599400005],[-6.697530124999957,41.19134588700007],[-6.696829340999955,41.18926264600003],[-6.699320560999979,41.18308463900007],[-6.710054078999974,41.173081151000076],[-6.715547830999981,41.17015192100007],[-6.720734291999975,41.16738653700003],[-6.729381349999926,41.16277598700003],[-6.741312021999931,41.150820114000055],[-6.749213132999955,41.14290231500007],[-6.75725267599995,41.138859264000075],[-6.767888702999926,41.13351045300004],[-6.769733052999925,41.124415991000035],[-6.761163863999968,41.11196596000008],[-6.754730721999977,41.10261935600005],[-6.770564897999975,41.085552359000076],[-6.774760500999946,41.07389841400004],[-6.791918967999948,41.055715887000076],[-6.801049874999933,41.04937113400007],[-6.807936317999975,41.04458598100007],[-6.808134221999978,41.040948436000065],[-6.808374828999945,41.03652601400006],[-6.812536164999926,41.035899897000036],[-6.814615834999927,41.03525531400004],[-6.822433572999955,41.031845059000034],[-6.827956383999947,41.03109343800003],[-6.832919820999962,41.02911394100005],[-6.85306174699997,41.02702361100006],[-6.863511715999948,41.02755420600005],[-6.877051869999946,41.02824170400004],[-6.905738970999948,41.036179470000036],[-6.914261726999939,41.03853773000003],[-6.929864671999951,41.02933623200005],[-6.93066622799995,41.017081200000064],[-6.921210253999959,41.003738404000046],[-6.917918019999945,41.002321933000076],[-6.908498938999969,40.998269409000045],[-6.888989305999928,40.974518569000054],[-6.886295745999973,40.971239455000045],[-6.882068899999979,40.96786737200006],[-6.87071895899993,40.95881264500008],[-6.863511715999948,40.95212105300004],[-6.861355481999965,40.950119089000054],[-6.858105594999927,40.943165117000035],[-6.857432348999964,40.94242116100003],[-6.849554615999978,40.92395070400005],[-6.849614945999974,40.91174075300006],[-6.849657062999938,40.90321697300004],[-6.838180786999942,40.889657612000065],[-6.819554283999935,40.88153525000007],[-6.814967197999977,40.881751277000035],[-6.810009140999966,40.881984774000045],[-6.807456857999966,40.87667858700007],[-6.801935045999926,40.86104598000003],[-6.802198250999936,40.84514256700004],[-6.810247966999952,40.84466777700004],[-6.824410082999975,40.84383246400006],[-6.822518981999963,40.823097337000036],[-6.819783396999981,40.813773963000074],[-6.817315300999951,40.80536224200006],[-6.819901909999942,40.79455214700005],[-6.821749385999965,40.790887213000076],[-6.825457433999929,40.78353136800007],[-6.828206830999932,40.76066971700004],[-6.828349442999979,40.75948387600005],[-6.828623834999973,40.75871835200007],[-6.830735352999966,40.75282745700008],[-6.829323435999981,40.740695827000025],[-6.823939891999942,40.730089520000035],[-6.820579321999958,40.72689924900004],[-6.812160086999938,40.718906666000066],[-6.812704791999977,40.70708201700006],[-6.803083370999957,40.68202215000008],[-6.803689859999963,40.67838077600004],[-6.804586074999975,40.67299987600006],[-6.803625215999944,40.66726571000004],[-6.798879678999981,40.66456253700005],[-6.793930516999978,40.661743374000025],[-6.799121765999928,40.654558534000046],[-6.804380804999937,40.638301829000056],[-6.806012975999977,40.633426660000055],[-6.807910349999929,40.62958138100004],[-6.811306043999934,40.625694184000054],[-6.813009634999958,40.62237197700006],[-6.820817855999962,40.61064972200006],[-6.821410751999963,40.61007706300006],[-6.835998282999981,40.59598744300007],[-6.837706455999978,40.58937065600003],[-6.836757020999926,40.58569352300003],[-6.836990758999946,40.58297698000007],[-6.837812337999935,40.57978048200005],[-6.841026734999957,40.57648444300003],[-6.841443767999976,40.57472198700003],[-6.843609839999942,40.57067112300007],[-6.844637188999968,40.56679150100007],[-6.819867433999946,40.55876965600004],[-6.805835477999949,40.55422531700003],[-6.80173446699996,40.549722952000025],[-6.80480460299998,40.540488065000034],[-6.804923114999951,40.54013158500004],[-6.803016333999949,40.529777351000064],[-6.801285689999929,40.52753830800003],[-6.797613086999945,40.52278683000003],[-6.795990366999945,40.512369826000054],[-6.80393414699995,40.50777938600004],[-6.814036234999946,40.50194173300008],[-6.819964839999955,40.48820832000007],[-6.821764822999967,40.486259311000026],[-6.822769695999966,40.48381034100004],[-6.827456942999959,40.48057567800004],[-6.82937579299994,40.47968255700005],[-6.833463710999979,40.47679911200004],[-6.848107798999933,40.45544067000003],[-6.845052223999971,40.43633235100003],[-6.835322668999936,40.409369480000066],[-6.823399478999931,40.39730863600005],[-6.816224491999947,40.39290323900008],[-6.811272480999946,40.389862735000065],[-6.810118710999973,40.38726444400004],[-6.808881740999936,40.384478785000056],[-6.802627168999948,40.380345875000046],[-6.800592550999966,40.37900143500008],[-6.782038624999927,40.36557313600008],[-6.78630246299997,40.36171164800004],[-6.79323184499998,40.355436144000066],[-6.791990590999944,40.34340696900006],[-6.79100729299995,40.33387767800008],[-6.80070448999993,40.326019718000055],[-6.806538023999963,40.32535801000006],[-6.819980072999954,40.32383325600006],[-6.840238202999956,40.31422287700008],[-6.861195381999948,40.29969213000004],[-6.865144205999968,40.27069454400004],[-6.870308085999966,40.26348057300004],[-6.880777292999937,40.25939362100007],[-6.893029734999971,40.25992564400008],[-6.910699034999936,40.25503898100004],[-6.923385333999931,40.25810281500003],[-6.951298650999945,40.257446025000036],[-6.955397015999949,40.24858112600003],[-6.964145948999942,40.23824027500007],[-6.970965391999925,40.23688686300005],[-6.974455026999976,40.23920127100007],[-6.975999715999933,40.24022574500003],[-6.981014435999953,40.24006719400006],[-6.99775598399998,40.235495523000054],[-7.01111889699996,40.226803560000064],[-7.013748410999938,40.21758005000004],[-7.019372336999936,40.19785308000007],[-7.022286571999928,40.19539199900004],[-7.025950199999954,40.19229805400005],[-7.028248635999944,40.185890775000075],[-7.024064080999949,40.18308514000006],[-7.016220328999964,40.17782610800003],[-7.019273369999951,40.16803052600005],[-7.013932828999941,40.15937717300005],[-7.013594302999934,40.15142743700005],[-7.01533597699995,40.14936705500003],[-7.018781415999968,40.145291136000026],[-7.014757068999927,40.14188294400003],[-7.01239998099993,40.133447517000036],[-7.010878498999944,40.13214709600004],[-7.009459694999975,40.13093443500003],[-7.009581303999937,40.13052153700005],[-7.010688534999929,40.126762162000034],[-6.994304931999977,40.11843142400005],[-6.993094218999943,40.11338258300003],[-6.98693131899995,40.118142317000036],[-6.986226318999968,40.11868680300006],[-6.966383793999967,40.114753087000054],[-6.964144353999927,40.114309125000034],[-6.960785432999955,40.110340423000025],[-6.954883880999944,40.11285622300005],[-6.953654822999965,40.113380164000034],[-6.942708313999958,40.11262196700005],[-6.942776995999964,40.10776142100008],[-6.942818980999959,40.10479016700003],[-6.940198610999971,40.10409621900004],[-6.935197967999954,40.102771906000044],[-6.932988171999966,40.09942593300008],[-6.920460212999956,40.083636855000066],[-6.91750396499998,40.07183552600003],[-6.916033594999931,40.06596581500003],[-6.90595150799993,40.063149863000035],[-6.89339438899998,40.05964262900005],[-6.894492106999962,40.05585481500003],[-6.895657221999954,40.05183443900006],[-6.889442311999971,40.047188848000076],[-6.882033432999947,40.04165077600004],[-6.878776026999958,40.02888440700008],[-6.876022371999966,40.01809232700003],[-6.871369086999948,40.016173336000065],[-6.865906708999944,40.01392067900008],[-6.866542139999979,40.00890700200006],[-6.870821249999949,40.00761823700003],[-6.874571639999942,40.00648871000004],[-6.874228287999927,39.99598912100004],[-6.884897967999962,39.980301025000074],[-6.880848791999938,39.97190181600007],[-6.887879132999956,39.96219791900006],[-6.886257056999966,39.94782222300006],[-6.88561617299996,39.942142373000024],[-6.893920390999938,39.93335564600005],[-6.89658400899998,39.93221543000004],[-6.901699100999963,39.93002581200005],[-6.90769228399995,39.919334879000075],[-6.905422607999981,39.91625609500005],[-6.901115613999934,39.91041371700004],[-6.900968509999927,39.90023879900008],[-6.906227222999973,39.89149610700008],[-6.903384864999964,39.885538404000044],[-6.904459838999969,39.87212208600005],[-6.916377787999977,39.85847090000004],[-6.91887709699995,39.85804391100004],[-6.926183082999955,39.85679573700003],[-6.933294482999941,39.849470662000044],[-6.936510723999959,39.84286362000006],[-6.936517194999965,39.83988748100006],[-6.936521766999931,39.83778488000007],[-6.940169513999933,39.83612825800003],[-6.945194163999929,39.83384631500007],[-6.947599510999964,39.83072783400007],[-6.949864204999926,39.82779170500004],[-6.95818217599998,39.82482145500006],[-6.959040819999927,39.82490544800004],[-6.96841868599995,39.825822799000036],[-6.98223236299998,39.818114758000036],[-6.988612751999938,39.79514001800004],[-6.980512781999948,39.77981029100005],[-6.977339466999979,39.77380458400006],[-6.980675129999952,39.77034840600004],[-6.984621023999978,39.76625995000006],[-6.988474736999933,39.753293228000075],[-6.991784566999968,39.734931061000054],[-6.990177365999955,39.73016992300006],[-6.989028234999978,39.726765761000024],[-6.993855956999937,39.72013140100006],[-6.999381645999961,39.71253788100006],[-7.003410716999952,39.700012893000064],[-7.008172336999962,39.68521066200003],[-7.015320155999973,39.67285259700003],[-7.064807438999935,39.657966362000025],[-7.07592600199996,39.66036231700008],[-7.090565961999971,39.66351710400005],[-7.124378417999935,39.66398047300004],[-7.136226164999925,39.65817100400005],[-7.146702157999925,39.653034165000065],[-7.150592297999935,39.65299263600008],[-7.152719913999931,39.65331256400003],[-7.160988790999966,39.65552115000003],[-7.161517553999943,39.65566238100007],[-7.162970624999957,39.65574417800008],[-7.167958834999979,39.65602497800006],[-7.17060593399998,39.65660342600006],[-7.176556199999936,39.65790368800003],[-7.178868607999959,39.658408923000025],[-7.184387922999974,39.659335948000034],[-7.187313643999971,39.65954203700005],[-7.189041706999944,39.66037330900008],[-7.192364482999949,39.660775099000034],[-7.207734081999945,39.66078168400003],[-7.217176907999942,39.66078573000004],[-7.227362484999958,39.66299058900006],[-7.245817931999966,39.666985615000044],[-7.257035604999942,39.666060293000044],[-7.264246922999973,39.66593549700008],[-7.268731396999954,39.66462947800005],[-7.272315879999951,39.66358564500007],[-7.275521786999946,39.66360102400006],[-7.287077336999971,39.66148332200004],[-7.290070980999928,39.65976696600006],[-7.291389503999937,39.65785600900006],[-7.317993357999967,39.64759065900006],[-7.325141676999976,39.64483241200003],[-7.33386399699998,39.64155436400006],[-7.341218114999947,39.64327661800007],[-7.37572668699994,39.65135814700005],[-7.396886018999965,39.64775232900007],[-7.40070820699998,39.64710098000006],[-7.425748424999938,39.651924016000066],[-7.439308736999976,39.657472745000064],[-7.453170886999942,39.66314498300005],[-7.512085728999978,39.66650167800003],[-7.51589839199994,39.66672132600007],[-7.521055611999941,39.66710308800003],[-7.528841385999954,39.667327992000025],[-7.531266168999935,39.66788467500004],[-7.535988375999978,39.66775088700007],[-7.53956986299994,39.666946616000075],[-7.542808732999958,39.665504517000045],[-7.545092173999933,39.66355142700007],[-7.542845391999947,39.66278609400007],[-7.536074913999926,39.66142731300005],[-7.530574359999946,39.65618320400006],[-7.526174755999932,39.64159988200004],[-7.526692589999925,39.63731560900004],[-7.527197886999943,39.633135062000065],[-7.520107921999966,39.62693260100008],[-7.512085728999978,39.619914605000076],[-7.507124486999942,39.606476701000076],[-7.50047911799993,39.59849621500007],[-7.499566653999977,39.59454217900003],[-7.498321501999953,39.589146490000076],[-7.488007762999928,39.585066812000036],[-7.485368107999932,39.584022676000075],[-7.465954364999959,39.57508093000007],[-7.452651492999962,39.561843991000046],[-7.450738530999956,39.55856573900007],[-7.444303741999931,39.54753841400003],[-7.429340778999972,39.534624447000056],[-7.41628512099993,39.53195448200006],[-7.409307924999951,39.532533595000075],[-7.399878495999928,39.53331624600003],[-7.391188156999931,39.52994618400004],[-7.388591001999941,39.52123183600003],[-7.388722884999936,39.51768489300008],[-7.389259318999962,39.503257648000044],[-7.379784293999933,39.49745252300005],[-7.379941261999932,39.49310126100005],[-7.361758020999957,39.48309568800005],[-7.359013105999963,39.48395803100004],[-7.348172857999941,39.48736360300006],[-7.343504558999939,39.47935669100008],[-7.32322946599993,39.47517710600005],[-7.305219004999969,39.463922611000044],[-7.295663987999944,39.456044278000036],[-7.301244396999948,39.44971435900004],[-7.305332151999949,39.44507757400004],[-7.308492158999968,39.43053223000004],[-7.30375519699993,39.41920265300007],[-7.302122217999965,39.41529699400007],[-7.308211447999952,39.401030062000075],[-7.310297777999949,39.40030524400004],[-7.312862937999967,39.39941407300006],[-7.314627986999938,39.39281110400003],[-7.322914099999934,39.38142348400004],[-7.318276448999939,39.376258574000076],[-7.311821821999956,39.36907011300008],[-7.306785039999966,39.355679147000046],[-7.308181881999928,39.34314268000003],[-7.308792998999934,39.337657989000036],[-7.293965772999968,39.32923770700006],[-7.292060398999979,39.32815565800007],[-7.271771550999972,39.31173196800006],[-7.271311304999927,39.31082133000007],[-7.266262396999934,39.30083161400006],[-7.231467159999966,39.278431039000054],[-7.241289651999978,39.26454896100006],[-7.247427312999946,39.252638260000026],[-7.244604199999969,39.24626891100007],[-7.242181298999981,39.24080249600007],[-7.24342407599994,39.23510851200007],[-7.245000266999966,39.227886940000076],[-7.241973434999977,39.22138984000003],[-7.240677796999933,39.21860875200008],[-7.241069670999934,39.21284297300008],[-7.241359373999956,39.20858046700005],[-7.231393231999959,39.20320523300006],[-7.222288379999952,39.19387622900007],[-7.20764365499997,39.187522338000065],[-7.195928778999928,39.185308451000026],[-7.171191212999929,39.180633525000076],[-7.137471154999957,39.172006241000076],[-7.133388982999975,39.16774400500003],[-7.134244064999962,39.15950543500003],[-7.139374830999941,39.15065140200005],[-7.137426975999972,39.14362117500008],[-7.145880763999969,39.127796190000026],[-7.148648557999934,39.12261504400004],[-7.148076617999948,39.119086923000054],[-7.143881818999944,39.10932165200006],[-7.105870918999926,39.099384101000055],[-7.100973110999973,39.10330721300005],[-7.098121661999926,39.10559120500005],[-7.051960738999981,39.117884410000045],[-7.029584177999936,39.11616586800005],[-6.996153526999933,39.099194295000075],[-6.981930252999973,39.088358680000056],[-6.960465524999961,39.05683458400006],[-6.96192347799996,39.053184497000075],[-6.965153623999981,39.04509759800004],[-6.965526704999945,39.04247308200007],[-6.966426567999974,39.03862040400003],[-6.956454994999945,39.02757168900007],[-6.952703360999976,39.02341479900008],[-6.963958382999976,39.01236472200003],[-6.985297352999964,38.97873378500003],[-7.018782428999941,38.94238427100004],[-7.02735477899995,38.92416924400004],[-7.044743668999956,38.910879701000056],[-7.051025884999945,38.90607848700006],[-7.043409263999934,38.89875703200005],[-7.04089141999998,38.89633676100004],[-7.040245581999955,38.89111927700003],[-7.039466653999966,38.88482661300003],[-7.037010161999945,38.88330833600003],[-7.035216994999928,38.882200038000065],[-7.033953119999978,38.877541300000075],[-7.040875591999963,38.864580094000075],[-7.054614031999961,38.85926856100008],[-7.067875250999975,38.85414153000005],[-7.075784244999966,38.84146719200004],[-7.09003045999998,38.81863731800007],[-7.095111721999956,38.81599743500004],[-7.107026319999932,38.81673923000005],[-7.113222925999935,38.81712502600004],[-7.12886323999993,38.813490510000065],[-7.153934136999965,38.79433147800006],[-7.155347579999955,38.79105040600007],[-7.15811187099996,38.78463356300006],[-7.168418347999932,38.77691688800007],[-7.175389552999945,38.77426063000007],[-7.191806791999966,38.76800512300008],[-7.203134912999928,38.75101749100003],[-7.225678794999965,38.73770078100006],[-7.234914068999956,38.736351513000045],[-7.240237155999978,38.73557381300003],[-7.252485606999926,38.72823479400006],[-7.253459646999943,38.72010550300007],[-7.253739264999979,38.71777182400007],[-7.259251030999962,38.709080509000046],[-7.264752570999974,38.70040532100006],[-7.265843866999944,38.684785015000045],[-7.269181725999943,38.63700845900007],[-7.264243285999953,38.628755144000024],[-7.255862051999941,38.628640347000044],[-7.249738826999931,38.628556477000075],[-7.244885501999931,38.62474068200004],[-7.255371208999975,38.61163809400006],[-7.259490752999966,38.606490450000024],[-7.260351988999957,38.604298276000065],[-7.260409223999943,38.60415259000007],[-7.260625980999976,38.59733606300006],[-7.261770697999964,38.59536756600005],[-7.273971184999937,38.57754974300008],[-7.279846431999943,38.57557071000008],[-7.285368632999962,38.57371059900004],[-7.288456882999981,38.562882106000075],[-7.289493663999963,38.559246786000074],[-7.296022767999943,38.55173280300005],[-7.29714605199996,38.550440078000065],[-7.303188036999927,38.54343395800004],[-7.302993428999969,38.53832593000004],[-7.30256739999993,38.52714363200005],[-7.308798164999928,38.51926287600003],[-7.311191310999959,38.516235993000066],[-7.32181221999997,38.47814408100004],[-7.314628582999944,38.475143443000036],[-7.310547750999945,38.47861206700003],[-7.306832106999934,38.481770288000064],[-7.300053589999948,38.48267582600005],[-7.296307185999979,38.47925214300005],[-7.297765857999934,38.47344209000005],[-7.30253001899996,38.46544617500007],[-7.309669149999934,38.462038832000076],[-7.313260971999966,38.460324538000066],[-7.314049130999933,38.45718325800004],[-7.315979655999968,38.44948898000007],[-7.323783442999968,38.44639196300005],[-7.330640078999977,38.443670834000045],[-7.335693850999974,38.43584214500004],[-7.322664108999959,38.43872315700003],[-7.317968200999928,38.43976147200004],[-7.304721375999975,38.43020965300008],[-7.299033269999939,38.42610816000007],[-7.29720277499996,38.42664221200005],[-7.29354208899997,38.427710227000034],[-7.286476845999971,38.42366552300007],[-7.280982054999981,38.41916309800007],[-7.274314534999974,38.40473731700007],[-7.268306119999977,38.39173756800005],[-7.260543396999935,38.384152881000034],[-7.23031782299995,38.35462052400004],[-7.203171914999928,38.32980640200003],[-7.194283218999942,38.31526656600005],[-7.183008174999941,38.29682322200006],[-7.168373370999973,38.28451536600005],[-7.16855983399995,38.28007348800003],[-7.159930613999961,38.27955244100008],[-7.159047821999934,38.27949913600003],[-7.145538034999959,38.262598076000074],[-7.144080730999974,38.25380810200005],[-7.141758911999943,38.239803652000035],[-7.128135462999978,38.22481717000005],[-7.11849915199997,38.21421674000004],[-7.107952585999953,38.188121617000036],[-7.097781097999928,38.17975548800007],[-7.091102289999981,38.17819239900007],[-7.08950626099994,38.17781886900008],[-7.08893257699998,38.17691387200006],[-7.084808103999933,38.170407440000076],[-7.068175836999956,38.178605944000026],[-7.066974522999942,38.18160942500003],[-7.065096970999946,38.18630361000004],[-7.056898175999947,38.185000374000026],[-7.057334529999935,38.18326539200007],[-7.058434341999941,38.17889244400004],[-7.049582328999975,38.180499902000065],[-7.046524857999941,38.18408190100007],[-7.04562293999993,38.185138548000054],[-7.039971338999976,38.18670644400004],[-7.034326645999954,38.18500329200003],[-7.028379196999936,38.18320879100003],[-7.019016839999949,38.19048919800008],[-7.017067938999958,38.193926591000036],[-7.015670002999968,38.19639221500006],[-7.013576469999975,38.19680458400006],[-7.010447474999978,38.19742091200004],[-7.010418878999928,38.19940736400008],[-7.010349048999956,38.20425827300005],[-7.00266437099998,38.20410211800004],[-6.996132947999968,38.20396939800003],[-6.990508572999943,38.20652591900006],[-6.981718072999968,38.210521580000034],[-6.979729392999957,38.20867522900005],[-6.978423729999975,38.20746301300005],[-6.971441732999949,38.20344088100006],[-6.961112506999939,38.21238733600006],[-6.95639506599997,38.21647325400005],[-6.949169179999956,38.21729603400007],[-6.948231563999968,38.21495572600003],[-6.947249083999964,38.212503437000066],[-6.942598832999977,38.216078863000064],[-6.937894599999936,38.21969579300003],[-6.937714485999948,38.21370069000005],[-6.937553891999926,38.20835530100004],[-6.931738572999961,38.208378046000064],[-6.937218160999976,38.19833659000005],[-6.947230728999955,38.190407513000025],[-6.95726170699993,38.18246385700007],[-6.968410098999925,38.16538759800005],[-6.965466739999954,38.15712281900005],[-6.962652636999962,38.15610343800006],[-6.953522052999972,38.15279597500006],[-6.958350173999975,38.14921627700005],[-6.960117,38.14269352500003],[-6.960592821999967,38.140936890000035],[-6.959893991999934,38.138496271000065],[-6.958918593999954,38.135089755000024],[-6.963598064999928,38.13334770900008],[-6.966027519999955,38.13244328600007],[-6.967101839999941,38.128477556000064],[-6.967530689999933,38.12689450600004],[-6.971907891999933,38.110736573000054],[-6.978423729999975,38.10471074900005],[-6.984571290999952,38.10419548800007],[-6.987446139999975,38.103954531000056],[-6.988858556999958,38.09807964500004],[-6.989780523999968,38.09636283700007],[-6.989173703999938,38.09443649100007],[-6.989909878999981,38.09181986400006],[-6.990066946999946,38.07110392300007],[-6.990157849999946,38.059114555000065],[-6.99370734699994,38.05493606700003],[-7.000550894999947,38.04687980400007],[-7.000474297999972,38.038658070000054],[-7.00042547299995,38.033417228000076],[-7.005640451999966,38.02223324100004],[-7.015555045999974,38.02327924800005],[-7.024441328999956,38.02421676700004],[-7.034157393999976,38.02014948600004],[-7.044540083999948,38.01580314700004],[-7.059695562999934,38.01860323000005],[-7.062364075999938,38.02290097800005],[-7.068309042999942,38.03247558800007],[-7.093281527999977,38.04073738500006],[-7.098616137999954,38.04316813200006],[-7.107685960999959,38.04051985000007],[-7.116924899999958,38.032077154000035],[-7.117104099999949,38.03191339800003],[-7.11733406299993,38.031869019000055],[-7.127107896999973,38.029982835000055],[-7.126362191999931,38.02420722200003],[-7.131638820999967,38.021241083000064],[-7.128381948999959,38.01889683700006],[-7.128407908999975,38.01341178600006],[-7.128418150999948,38.01124762200004],[-7.122852530999978,38.00542397500004],[-7.131818922999969,38.00080285400003],[-7.135966590999942,38.001177562000066],[-7.146359501999939,38.00211647500004],[-7.152247462999981,37.99744088800003],[-7.155695137999942,37.99470311400006],[-7.172890373999962,37.99405019400007],[-7.18319226999995,37.997936852000066],[-7.183738623999943,37.99866806800003],[-7.187080155999979,38.00314022600003],[-7.202714195999931,38.00276801200005],[-7.204785965999974,38.00058175600003],[-7.208121286999926,37.997062124000024],[-7.225713620999954,37.98917996000006],[-7.233255593999957,37.990511785000024],[-7.240791624999929,37.991842560000066],[-7.24690533699993,37.99032205300006],[-7.26259042099997,37.978843520000055],[-7.255134453999972,37.96972217600006],[-7.250943332999952,37.964594919000035],[-7.249484784999936,37.95536554300003],[-7.257128456999965,37.932161345000054],[-7.255735638999965,37.92411488400006],[-7.261657018999927,37.92314373100004],[-7.274551826999925,37.89980737700006],[-7.278232618999937,37.89842654000006],[-7.281798404999961,37.89708884700008],[-7.281248907999952,37.889068259000055],[-7.280426974999955,37.87707113100004],[-7.286616352999943,37.865566],[-7.290796075999936,37.86194255800007],[-7.297137213999974,37.85644536600006],[-7.298248370999943,37.852127918000065],[-7.300604675999978,37.842972392000036],[-7.303359088999969,37.839554],[-7.305399302999945,37.83874858200005],[-7.307987401999981,37.83772661100005],[-7.309794875999955,37.836555529000066],[-7.312113777999969,37.83348869500003],[-7.314340281999932,37.828639880000026],[-7.316534822999927,37.82634395800005],[-7.31930727799994,37.824393427000075],[-7.320276628999977,37.823711450000076],[-7.321145305999949,37.82197275200008],[-7.323879847999933,37.816499434000036],[-7.335947156999964,37.80998210800004],[-7.355836423999961,37.79924028900007],[-7.363560897999946,37.79275219400006],[-7.396253072999968,37.76529272700003],[-7.405906752999954,37.76633000700008],[-7.407528312999943,37.76650424200005],[-7.41097535199998,37.76316739600003],[-7.413846914999965,37.760387629000036],[-7.416670559999943,37.75961380500007],[-7.42075200599993,37.758495278000055],[-7.420241702999931,37.752209107000056],[-7.419668344999934,37.745146195000075],[-7.423381882999934,37.74336724900007],[-7.428058335999935,37.741127024000036],[-7.427242025999931,37.732547871000065],[-7.437826495999957,37.713276697000026],[-7.439286252999977,37.70115247700005],[-7.446621538999977,37.69874672000003],[-7.444432044999928,37.68820477600008],[-7.451487444999941,37.678117961000055],[-7.448935701999972,37.67141492300004],[-7.446481741999946,37.664968748000035],[-7.451837563999959,37.66324410000004],[-7.455977046999976,37.66191113000008],[-7.453332935999981,37.659033556000054],[-7.452496442999973,37.65812320400005],[-7.454509148999932,37.64783280200004],[-7.458735368999953,37.64814844400007],[-7.466355872999941,37.64871759300007],[-7.464598698999964,37.64161571900007],[-7.464553848999969,37.641434453000045],[-7.47023612199996,37.63512184500007],[-7.471485376999965,37.62544202300006],[-7.480250422999973,37.62417709400006],[-7.481264110999973,37.62403080300004],[-7.481256900999938,37.62305570900003],[-7.481221547999951,37.61827448500003],[-7.488924319999967,37.60490521400004],[-7.497889604999955,37.60452411000006],[-7.50276428199993,37.60431689300003],[-7.499829635999959,37.59853041300005],[-7.497257084999944,37.59345790500004],[-7.500468879999971,37.58592121700008],[-7.501396643999954,37.58374415700007],[-7.502066393999939,37.58134089500004],[-7.502012174999948,37.581065188000025],[-7.501495532999968,37.57843803700007],[-7.505558829999927,37.57584762600004],[-7.514802222999947,37.56995482700006],[-7.513937326999951,37.56692063200006],[-7.511958187999937,37.566433388000064],[-7.507894060999945,37.56543284000003],[-7.507563759999925,37.55835614700004],[-7.516758126999946,37.55937209200005],[-7.517954931999952,37.55950433500004],[-7.522943495999925,37.553451524000025],[-7.519933868999942,37.54729862100004],[-7.518116904999943,37.545116335000046],[-7.517368652999949,37.54443406100006],[-7.514790632999961,37.542083363000074],[-7.513325774999942,37.539760337000075],[-7.512671008999973,37.53789505200007],[-7.512983407999968,37.52840989200007],[-7.512691485999937,37.52625636400006],[-7.506782667999971,37.523011058000066],[-7.501167998999961,37.522666368000046],[-7.494365565999942,37.522248760000025],[-7.491823450999959,37.51601774200003],[-7.48486427399996,37.49895999600005],[-7.472230858999978,37.49300361400003],[-7.465928893999944,37.490032374000066],[-7.466711156999963,37.48410669200007],[-7.46863555799996,37.46952926400007],[-7.459023569999943,37.45399009400006],[-7.457454457999972,37.45145339800007],[-7.457433222999953,37.447759811000026],[-7.457336088999966,37.43086483600007],[-7.45130917399996,37.42376847200006],[-7.447391193999977,37.41915526500003],[-7.454221799999971,37.41460895000006],[-7.461229215999936,37.409944953000036],[-7.456938655999977,37.40710351300004],[-7.450123294999969,37.402590014000054],[-7.44123345099996,37.39172649900007],[-7.438927654999929,37.37950162000004],[-7.437470287999929,37.37029165900003],[-7.438196342999959,37.35837956300003],[-7.439739753999959,37.354537264000044],[-7.443699422999941,37.34467972500005],[-7.440487576999942,37.32907708100004],[-7.440359592999926,37.328455355000074],[-7.440550268999971,37.32694268600005],[-7.442034671999977,37.31516664000003],[-7.433861469999954,37.289853797000035],[-7.427580108999962,37.28139537900006],[-7.422616178999931,37.27471100200006],[-7.42752023099996,37.26632539700006],[-7.431574894999926,37.25939219000003],[-7.432938441999966,37.248428930000046],[-7.424094818999947,37.24086973400006],[-7.418465199999957,37.236057747000075],[-7.413280016999977,37.22336506200003],[-7.413322089999951,37.21904457900007],[-7.413405756999964,37.21045286900005],[-7.412510260999966,37.207699098000035],[-7.409530599999925,37.19558696400003],[-7.407957363999969,37.184818592000056],[-7.406917029999931,37.18202966600006],[-7.401916633999974,37.17482748000003],[-7.401590665999947,37.174407967000036],[-7.396337714999959,37.16632155600007],[-7.398048144999962,37.16415813400005],[-7.40713121899995,37.17132238800008],[-7.425392131999956,37.17410317400004],[-7.442020623999952,37.17663537400006],[-7.469210715999964,37.17566317400008],[-7.481833568999946,37.172873114000026],[-7.506813073999979,37.16717686900006],[-7.531411109999965,37.15766063700005],[-7.570363351999958,37.14803580500006],[-7.573399131999963,37.143759887000044],[-7.571894273999931,37.14394866400005],[-7.569273772999964,37.14427739300004],[-7.568621373999974,37.14329370000007],[-7.569614190999971,37.14236714900005],[-7.57345948699998,37.14110723300007],[-7.599370802999942,37.127944641000056],[-7.603450708999958,37.12587210500004],[-7.607444293999947,37.123843419000025],[-7.611512956999945,37.12125378500008],[-7.616013285999941,37.11838940400003],[-7.616637412999978,37.11831832900003],[-7.628050774999963,37.11701859400006],[-7.638278841999977,37.105921410000064],[-7.640842863999978,37.10313951400008],[-7.638704648999976,37.101792283000066],[-7.629310765999946,37.11083346300006],[-7.626783362999959,37.11119260800007],[-7.636734966999938,37.10055152600006],[-7.675019560999942,37.078917637000075],[-7.710165654999969,37.062991459000045],[-7.710741896999934,37.06441220000005],[-7.712867114999938,37.06965198600005],[-7.718125443999952,37.06207671200008],[-7.726302586999964,37.05720981500008],[-7.728016728999933,37.055993443000034],[-7.726713605999976,37.05526308200007],[-7.724517865999928,37.054032437000046],[-7.726640741999972,37.052072502000044],[-7.785792914999945,37.01934694600004],[-7.798436862999949,37.01302798900008],[-7.805160737999927,37.015819806000025],[-7.80632234899997,37.016302118000056],[-7.808424785999932,37.020335412000065],[-7.807854359999965,37.022216144000026],[-7.80632234899997,37.02317403500007],[-7.801888296999948,37.02237367300006],[-7.798798704999967,37.02181599100004],[-7.791307704999952,37.027324263000025],[-7.790797803999965,37.027793029000065],[-7.786645631999932,37.031610227000044],[-7.795677336999972,37.033646661000034],[-7.80632234899997,37.02548100400003],[-7.816567718999977,37.02985890000008],[-7.831196030999934,37.025170349000064],[-7.856693953999979,37.020964337000066],[-7.863408412999945,37.01966059700004],[-7.860253971999953,37.014972011000054],[-7.863830149999956,37.00984168000008],[-7.880999516999964,37.01189946100004],[-7.866172252999945,37.003170297000054],[-7.86288418099997,37.00123453000003],[-7.860779849999972,36.99541807300005],[-7.864054944999964,36.99027215500007],[-7.886115637999978,36.984057578000034],[-7.895523220999962,36.99003612200005],[-7.92128377399996,37.006407023000065],[-7.928692819999981,36.999990515000036],[-7.912564416999942,36.99478054100007],[-7.901102183999967,36.985321526000064],[-7.890481192999971,36.97655673100007],[-7.892354699999942,36.968086937000066],[-7.877438783999935,36.96691178900005],[-7.880528105999929,36.963254181000025],[-7.908043648999978,36.966454234000025],[-7.907898172999978,36.97101960600003],[-7.91453566499996,36.974981470000046],[-7.915771538999934,36.97571915300006],[-7.918230252999933,36.97638329600005],[-7.944595493999941,36.98350502200003],[-7.962285578999968,36.99309906900004],[-7.96668828199995,36.99548683300003],[-7.970042894999949,36.99604240300005],[-7.978395687999978,36.99742574100003],[-7.981468057999962,37.00037741700004],[-7.988581028999931,37.007210963000034],[-7.993175650999945,37.006485947000044],[-7.993476864999934,37.00643841600004],[-8.000468228999978,37.010270079000065],[-8.003544232999957,37.01219547300008],[-8.006278080999948,37.013906699000074],[-8.005970561999959,37.01771035500008],[-8.012484386999972,37.01723502400006],[-8.071409726999946,37.051600189000055],[-8.08981018999998,37.06107655100004],[-8.127208768999935,37.07385154900004],[-8.182939596999972,37.09022814800005],[-8.233941663999929,37.08291864700004],[-8.252796136999962,37.08618021800004],[-8.259908085999939,37.08019101100007],[-8.268335203999925,37.07782929200005],[-8.28476418899993,37.07322503300003],[-8.308885071999953,37.07550368400007],[-8.327464417999977,37.08737530600007],[-8.329530335999948,37.088695364000046],[-8.352166648999969,37.09869447400007],[-8.369471439999927,37.10174236000006],[-8.389542395999968,37.094723163000026],[-8.401061383999945,37.09069475300004],[-8.442157460999965,37.08603047400004],[-8.493997283999931,37.10127259300003],[-8.502241294999976,37.10043225700008],[-8.518558948999953,37.105943523000064],[-8.520959551999965,37.10934830900004],[-8.527876711999966,37.10841920900003],[-8.529727785999967,37.11373112900003],[-8.530293496999946,37.11535451700007],[-8.53366153099995,37.11707586500006],[-8.56400800199998,37.11959608400008],[-8.565845820999925,37.11862324800006],[-8.570992420999971,37.11589893100006],[-8.590270867999948,37.12058204300007],[-8.599249332999932,37.122763088000056],[-8.619021501999953,37.12057029500005],[-8.642645121999976,37.11803117300008],[-8.64761793699995,37.11647527700006],[-8.660169168999971,37.11008809800006],[-8.66771968699993,37.10266743500006],[-8.668560770999932,37.09389096900003],[-8.66892004999994,37.09014199400008],[-8.666809237999928,37.084032430000036],[-8.669781416999967,37.08022436400006],[-8.682853189999946,37.08425395200004],[-8.68592254899994,37.08520013200007],[-8.710373080999943,37.08412676900008],[-8.723304225999925,37.08649351400004],[-8.733471608999935,37.08233487600006],[-8.754092809999975,37.07390044300007],[-8.772260804999974,37.071226660000036],[-8.78909618199998,37.06309145900008],[-8.79925577299997,37.06548873700007],[-8.80041812899998,37.06576300900008],[-8.822340702999952,37.06477236000006],[-8.854792862999943,37.05475936500005],[-8.856587848999936,37.050648169000056],[-8.857860548999952,37.04773320400005],[-8.864083793999953,37.04271148000004],[-8.871583038999972,37.04574785800003],[-8.879343157999926,37.04446255000005],[-8.89528897799994,37.04182144500004],[-8.896696414999951,37.03505396400004],[-8.902021354999931,37.029405729000075],[-8.90691329599997,37.024216781000064],[-8.912168109999925,37.02266895500003],[-8.926586051999948,37.01842209400007],[-8.929312761999938,37.011928021000074],[-8.928720487999954,37.01167927200004],[-8.92529879999995,37.010242197000025],[-8.929297505999955,37.00347495500006],[-8.942278209999927,37.004029040000034],[-8.947715115999927,36.99462793600003],[-8.951029695999978,36.997191728000075],[-8.948541925999962,37.00599602400007],[-8.953961718999949,37.014147225000045],[-8.95616057199993,37.01641391900006],[-8.965002402999971,37.025528543000064],[-8.973281535999945,37.02500719000005],[-8.979876623999928,37.025597927000035],[-8.982609751999973,37.02584274000003],[-8.986200896999947,37.02000188100004],[-8.994022958999949,37.02381054400007],[-8.980671879999932,37.042232012000056],[-8.98105249799994,37.05016860300003],[-8.973281535999945,37.06129514300005],[-8.966497941999933,37.067641183000035],[-8.962655272999939,37.07123599200003],[-8.962167491999935,37.07768743500003],[-8.961706362999962,37.083786384000064],[-8.957185024999944,37.093343126000036],[-8.950635544999955,37.09880916700007],[-8.93671508899996,37.11042685000007],[-8.917791070999954,37.145452877000025],[-8.909190897999963,37.15556097700005],[-8.903399341999943,37.16848413100007],[-8.90975681599997,37.17498210200006],[-8.909988003999956,37.17568371200008],[-8.912418779999939,37.18306065300004],[-8.910275963999936,37.18864682000003],[-8.91662776499993,37.19685123200003],[-8.907946080999977,37.19831310200004],[-8.903668171999925,37.19903344000005],[-8.896761149999975,37.205425879000074],[-8.867688218999945,37.25231662500005],[-8.860751996999966,37.270629823000036],[-8.865996394999968,37.28160164900004],[-8.865760701999932,37.29268592600005],[-8.869655654999974,37.294224402000054],[-8.875052153999945,37.29635597600003],[-8.875729112999977,37.306827346000034],[-8.873065078999957,37.312157127000035],[-8.87705286299996,37.32069490600003],[-8.86617156099993,37.32872997100003],[-8.863664484999958,37.33058126800006],[-8.846103608999954,37.35054488900005],[-8.839629855999931,37.36232346700007],[-8.835174549999977,37.36923943600004],[-8.820437331999926,37.39211601200003],[-8.81524548599998,37.402590014000054],[-8.807211758999927,37.418797211000026],[-8.807864497999958,37.42393872400004],[-8.80833208699994,37.42762184800006],[-8.805478411999957,37.43468496200006],[-8.796265455999958,37.44287863000005],[-8.801498262999928,37.447098691000065],[-8.798016120999932,37.463626125000076],[-8.799254154999971,37.47867189300007],[-8.795018728999935,37.48352734400004],[-8.795746041999962,37.49616598000006],[-8.791906167999969,37.50443919700007],[-8.79168892599995,37.50490725800006],[-8.791837856999962,37.505403871000055],[-8.793277123999928,37.51020312700007],[-8.790969712999981,37.51766354700004],[-8.789865377999945,37.52123412900005],[-8.787559544999965,37.52275808200005],[-8.786594699999966,37.53547629500008],[-8.794634409999958,37.55500914400005],[-8.79374589899993,37.56017551200006],[-8.804920329999959,37.57623630300003],[-8.805478411999957,37.57703842400008],[-8.811619225999948,37.58086031700003],[-8.81349344299997,37.58758258300003],[-8.81863862299997,37.59932723500003],[-8.812011109999958,37.610977578000075],[-8.810038386999963,37.62988749400006],[-8.803942606999954,37.650417606000076],[-8.795689885999934,37.67821212300004],[-8.792912549999926,37.694701517000055],[-8.79419149499995,37.70160831000004],[-8.79448001299994,37.70316642000006],[-8.793881953999971,37.70406316100008],[-8.78808360499994,37.71275731000003],[-8.788914194999961,37.71783721500003],[-8.79785467399995,37.73579571600004],[-8.802555832999928,37.73897085500005],[-8.811522791999948,37.74502709400008],[-8.805022420999933,37.769155451000074],[-8.806285308999975,37.77457409400006],[-8.802229873999977,37.780535505000046],[-8.801436845999945,37.79535541200005],[-8.797141410999927,37.80761780600005],[-8.792968504999976,37.81953040900004],[-8.79080991799998,37.83781664600008],[-8.795430677999946,37.850850138000055],[-8.79293357499995,37.866549527000075],[-8.797649903999968,37.89460880300004],[-8.800564326999961,37.907896607000055],[-8.810507094999934,37.927659935000065],[-8.832640191999928,37.937088077000055],[-8.840306537999936,37.93744077900004],[-8.843870534999951,37.935963085000026],[-8.848875095999972,37.933888109000065],[-8.864679802999945,37.94944594000003],[-8.88326996799998,37.95064806100004],[-8.887823604999937,37.95511994300006],[-8.884805146999952,37.96221515900004],[-8.871914942999979,37.969974980000075],[-8.870786030999966,37.971467981000046],[-8.859721165999929,37.98610141100005],[-8.82561506299993,38.04929490500007],[-8.823674922999942,38.05337040000006],[-8.796723923999934,38.12135869000008],[-8.795258269999977,38.12689450600004],[-8.780559023999956,38.182414003000076],[-8.775818171999958,38.244999122000024],[-8.780561507999948,38.30101097100004],[-8.787323217999926,38.335679190000064],[-8.803020548999939,38.37838205700007],[-8.816284263999933,38.403873831000055],[-8.836535906999927,38.43051023800007],[-8.85679470399998,38.44564097600005],[-8.898894550999955,38.47708419500003],[-8.907917906999955,38.48575803500006],[-8.908750743999974,38.49110824700006],[-8.901223992999974,38.49322230800004],[-8.892740697999955,38.49094222200006],[-8.88408469199993,38.477371617000074],[-8.878982140999938,38.481447252000066],[-8.854088085999933,38.45939964200005],[-8.827764883999976,38.44541760800007],[-8.822195369999974,38.42999103300008],[-8.818949428999929,38.42100034500004],[-8.798241252999958,38.39020854300003],[-8.787490206999962,38.410515178000026],[-8.78929605899998,38.415168538000046],[-8.794611595999982,38.41827383000003],[-8.796062198999948,38.419121260000054],[-8.79763348299997,38.42476045900003],[-8.807918417999929,38.428438655000036],[-8.804757078999955,38.44064167600004],[-8.798349623999968,38.43957339600007],[-8.789436751999972,38.42392078300003],[-8.789051903999962,38.42324492100005],[-8.778425239999933,38.419017438000026],[-8.775349350999932,38.40983294000006],[-8.767832271999964,38.40701276000004],[-8.761848242999974,38.40774701300006],[-8.753016276999972,38.41319949800004],[-8.74714623799997,38.41682341400008],[-8.735969556999976,38.41863464800008],[-8.693521602999965,38.41568633800006],[-8.69081356099997,38.416046331000075],[-8.690004758999976,38.41580609400006],[-8.687655676999952,38.41510835100007],[-8.681582483999932,38.41323035200003],[-8.672591559999944,38.41003032300006],[-8.668731616999935,38.40873626900003],[-8.650559770999962,38.40371362900004],[-8.650460626999973,38.407388540000056],[-8.657647060999977,38.40873626900003],[-8.700257369999974,38.442721506000055],[-8.70418310399998,38.44238966300003],[-8.71978785899995,38.44107059100003],[-8.72236763199993,38.46687742600005],[-8.725800385999946,38.50121709000007],[-8.728823980999948,38.51216406000003],[-8.73411632999995,38.51259270400004],[-8.735019809999926,38.51569646100006],[-8.740943984999944,38.53376557400003],[-8.739939772999946,38.536538474000054],[-8.73627825899996,38.54664890400005],[-8.740244626999981,38.552813556000046],[-8.739899067999943,38.565279555000075],[-8.746600870999941,38.563144831000045],[-8.747709183999973,38.55630158300005],[-8.748584624999978,38.55089619300003],[-8.764642289999927,38.53648165200008],[-8.778897488999974,38.53308866800006],[-8.780998935999946,38.53507119100004],[-8.787420250999958,38.54112911300007],[-8.802778692999937,38.53258825200004],[-8.802979531999938,38.52819858600003],[-8.78993135099995,38.520392307000066],[-8.790195170999937,38.51467672800004],[-8.783631947999936,38.50873623600006],[-8.775462088999973,38.50679344500003],[-8.76782794899998,38.504978048000055],[-8.765622310999959,38.499940491000075],[-8.771016654999926,38.49328927400006],[-8.779194092999944,38.492252790000066],[-8.78438351099993,38.48843645800008],[-8.811597738999978,38.48888393900006],[-8.831571715999928,38.49368318300003],[-8.83519113799997,38.49646391700003],[-8.849991143999944,38.50783448100003],[-8.887861301999976,38.52048167100003],[-8.904073151999967,38.517365562000066],[-8.922711184999969,38.50863640000006],[-8.932058168999959,38.49405600500006],[-8.936221574999934,38.487561493000044],[-8.944209731999933,38.484385975000066],[-8.955154469999968,38.484360080000044],[-8.963853136999944,38.48433949900004],[-8.981438071999946,38.47884922700007],[-8.982791892999956,38.475634538000065],[-8.984297229999981,38.472060071000044],[-8.994484256999954,38.46248650600006],[-9.017652183999928,38.45408248600006],[-9.028415379999956,38.44693522600005],[-9.03908458199993,38.44750910000005],[-9.052293511999949,38.44076245600007],[-9.053708166999968,38.44070222400006],[-9.060253720999981,38.44042353100008],[-9.060742613999935,38.43992495300006],[-9.065299245999938,38.43527805100007],[-9.085000340999954,38.43743210300005],[-9.092947383999956,38.43989732600005],[-9.100160861999939,38.442134993000025],[-9.109993552999981,38.44117247200006],[-9.11114751599996,38.439697902000034],[-9.115279031999933,38.434418519000076],[-9.141229360999944,38.430008144000055],[-9.159167681999975,38.429751596000074],[-9.167734380999946,38.42962907800006],[-9.18017264499997,38.420971364000025],[-9.196146402999943,38.40985275300005],[-9.219593282999938,38.413726816000064],[-9.216943047999962,38.42850686600008],[-9.197559732999935,38.45726790900005],[-9.193577245999961,38.46317713900004],[-9.184388062999972,38.48968288400005],[-9.182761708999976,38.52072803500005],[-9.187807924999959,38.550255338000056],[-9.190910945999974,38.56074967600006],[-9.199363422999966,38.57740447400005],[-9.218741111999975,38.616373586000066],[-9.225869952999972,38.62503405900003],[-9.252588947999925,38.65749363200007],[-9.258857707999937,38.66336886200003],[-9.247029492999957,38.667047181000044],[-9.239947553999968,38.67416383400007],[-9.223257433999947,38.67562247700005],[-9.195810009999946,38.678021261000026],[-9.18688303099998,38.67883780200003],[-9.171527991999938,38.682365393000055],[-9.160995765999928,38.684785015000045],[-9.147624535999967,38.68785685600005],[-9.146336924999957,38.684785015000045],[-9.143833488999974,38.67881259700005],[-9.146928643999956,38.67557382800004],[-9.149730062999936,38.67264242500005],[-9.146457851999969,38.666657530000066],[-9.141229360999944,38.66692098900006],[-9.137678426999969,38.65964420500006],[-9.132242213999973,38.657133929000054],[-9.12894885999998,38.65561316000003],[-9.113133460999961,38.64872855300007],[-9.116400798999962,38.64689952600003],[-9.126478877999944,38.650409945000035],[-9.126263686999948,38.64962744700006],[-9.124729143999957,38.64404739200006],[-9.133303229999967,38.64274835900005],[-9.115525504999937,38.63734825000006],[-9.107351894999965,38.621280512000055],[-9.106052603999956,38.64061582800008],[-9.105856702999972,38.64353111200006],[-9.095311329999959,38.646843422000074],[-9.08368282899994,38.64441056600003],[-9.084474410999974,38.640125596000075],[-9.084600617999968,38.63944241300004],[-9.083620308999969,38.63943414900007],[-9.075905642999942,38.639369112000054],[-9.06677283199997,38.62579507500004],[-9.049565712999936,38.60022024800003],[-9.04999053499995,38.612248958000066],[-9.055249910999976,38.61919420000004],[-9.05366838599997,38.629045106000035],[-9.06042604299995,38.632948604000035],[-9.065300787999945,38.63576445500007],[-9.066106884999954,38.641875663000064],[-9.067123968999965,38.649586405000036],[-9.071514891999925,38.65037397800006],[-9.079908855999975,38.651879552000025],[-9.080650968999976,38.65760731900008],[-9.088071661999948,38.65722943500003],[-9.08848884799994,38.66171414000007],[-9.077533566999932,38.66537171300007],[-9.071954415999926,38.66723439000003],[-9.071239650999928,38.66918510700003],[-9.070473740999944,38.67127540900003],[-9.061226833999967,38.67534599500004],[-9.059590929999956,38.68253032600006],[-9.054218856999967,38.678421773000025],[-9.045293570999945,38.677799063000066],[-9.042624415999967,38.66921294500003],[-9.040277042999946,38.66166193200007],[-9.03358224699997,38.662134526000045],[-9.032664696999973,38.66504518800008],[-9.031504784999981,38.66872467700006],[-9.020497156999966,38.66896221800005],[-9.01126420299994,38.663364966000074],[-8.995655991999968,38.653902870000024],[-8.997945793999975,38.659037899000054],[-9.002282210999965,38.667812542000036],[-9.007382888999928,38.67006924300006],[-9.01229753399997,38.672243638000054],[-9.008776197999964,38.68426219300005],[-9.004559649999976,38.687968832000024],[-9.002252172999931,38.68835646200006],[-8.99762002999995,38.68777562900004],[-8.98205803899998,38.685824284000034],[-8.975791025999968,38.68126243900008],[-8.976944629999934,38.684785015000045],[-8.979452570999968,38.692443119000075],[-8.977378070999976,38.69596764100004],[-8.96424260599997,38.69612640400004],[-8.95736687599998,38.692600879000054],[-8.96182244299996,38.698258560000056],[-8.981438071999946,38.70191957600008],[-9.005281555999943,38.69973434600007],[-9.008581455999945,38.70309247400007],[-9.032071432999942,38.700599698000076],[-9.03869319499995,38.69683433800003],[-9.048528744999942,38.691241508000076],[-9.044713790999936,38.71543840500004],[-9.024077098999953,38.72573442800007],[-9.012837069999932,38.728567686000076],[-9.008934693999947,38.72955135300003],[-9.009395967999978,38.73028993400004],[-9.010848391999957,38.73261552500003],[-9.006642217999968,38.73704986400003],[-8.981438071999946,38.74565837400007],[-8.972674583999947,38.74892112400005],[-8.969735026999956,38.75075753900006],[-8.947528278999926,38.76160115400006],[-8.931448761999945,38.76159415500007],[-8.924880813999948,38.758673875000056],[-8.931266617999938,38.768866709000065],[-8.942279136999957,38.80093128800007],[-8.95339797899993,38.814994315000035],[-8.96846585399993,38.827764847000026],[-8.997494783999969,38.80509297900005],[-9.011684956999943,38.82044313600005],[-9.01194989299995,38.83711660900008],[-9.011956260999966,38.83751738600006],[-9.003653886999928,38.84792631000005],[-8.995335730999955,38.84945998000006],[-8.989189734999968,38.85059315500007],[-8.98731328699995,38.858131325000045],[-8.986770652999951,38.86031122500003],[-8.989250055999946,38.85919605300006],[-9.003015472999948,38.85300472100005],[-9.010061127999961,38.84983576600007],[-9.01428328399993,38.84471338800006],[-9.019186588999958,38.83876463000007],[-9.023571764999929,38.84226942600003],[-9.01316462699998,38.872240274000035],[-9.000771167999972,38.881375320000075],[-8.992738994999968,38.88729572300008],[-8.989383705999956,38.91089642800006],[-8.990031158999955,38.931796905000056],[-8.985907525999949,38.949145670000064],[-8.989894076999974,38.94796646200007],[-9.002036343999976,38.932681830000035],[-9.003586605999942,38.930489839000074],[-9.005109898999933,38.924969935000036],[-9.008155984999973,38.920782028000076],[-9.012533578999978,38.91621266000004],[-9.014290609999932,38.912860153000054],[-9.01932514899994,38.89267132800006],[-9.01979066499996,38.890804579000076],[-9.020835947999956,38.88960649300003],[-9.034264724999957,38.87421464500005],[-9.041428989999929,38.86705070600004],[-9.060222309999972,38.85800308800003],[-9.071773187999952,38.843630318000066],[-9.087506681999969,38.81502330100005],[-9.089631173999976,38.79619844500007],[-9.09030728199997,38.77811507900003],[-9.091014627999925,38.75919619500007],[-9.094624977999956,38.75326456100004],[-9.09531280799996,38.75075753900006],[-9.102636598999936,38.73366587800007],[-9.109987701999955,38.72424157000006],[-9.115435354999931,38.71891398300005],[-9.122289741999964,38.71282471200004],[-9.141229360999944,38.705553535000035],[-9.15202125199994,38.70519212200003],[-9.175787166999953,38.69860878500003],[-9.187507762999928,38.69674506600006],[-9.213423639999974,38.692233851000026],[-9.226930343999982,38.69470864400006],[-9.229756435999946,38.69522646100006],[-9.260034116999975,38.69963798900005],[-9.285162442999933,38.696845953000036],[-9.299776262999956,38.688372687000026],[-9.302890959999957,38.686566749000065],[-9.309328809999954,38.684785015000045],[-9.312544104999972,38.68389515300004],[-9.318361581999966,38.67589606200005],[-9.326983061999954,38.67601171300004],[-9.347228953999945,38.681735124000056],[-9.353053164999949,38.684785015000045],[-9.36829531899997,38.69276668400005],[-9.369811841999933,38.69332619100004],[-9.392316767999944,38.70162917400006],[-9.404581230999952,38.70317765800007],[-9.417632143999981,38.69900167900005],[-9.41896122399993,38.696452280000074],[-9.418024001999981,38.695058377000066],[-9.416084804999969,38.69217426500006],[-9.419737340999973,38.68997268000004],[-9.428591150999978,38.69019616800006],[-9.43982804899997,38.695227518000024],[-9.460968785999967,38.69564965600006],[-9.485508963999962,38.70851070100008],[-9.479367908999961,38.72138989700005],[-9.473664579999934,38.73335108100008],[-9.474108791999981,38.75075753900006],[-9.480762377999952,38.75529293500006],[-9.483777445999976,38.75734814600003],[-9.494180713999981,38.76854581900005],[-9.494522996999933,38.77541927300007],[-9.499676418999968,38.78098425600007],[-9.481251097999973,38.81048383900003],[-9.45852896499997,38.84686277000003],[-9.41975279999997,38.93248439000007],[-9.415750765999974,38.94572534500003],[-9.416631997999957,38.95273644900004],[-9.420052017999978,38.96964770500006],[-9.422198770999955,38.98026293400005],[-9.419917015999943,38.98831090200008],[-9.424744703999977,38.993897772000025],[-9.426640776999932,39.00197151200007],[-9.421873322999943,39.012891472000035],[-9.424512345999972,39.02098517300004],[-9.41695746299996,39.04167125200007],[-9.416774763999967,39.04217150200003],[-9.416395121999926,39.05475934100008],[-9.416143730999977,39.06241238500007],[-9.421172487999968,39.07523855300008],[-9.408260772999938,39.09422774900003],[-9.403140275999931,39.10175843800005],[-9.39782800699993,39.10831566200005],[-9.394062326999972,39.11875730000003],[-9.392855336999958,39.122104093000075],[-9.389378145999956,39.126849796000045],[-9.38112449099998,39.138114460000054],[-9.35975042399997,39.171070634000046],[-9.357460939999953,39.181764196000074],[-9.35160237699995,39.191647329000034],[-9.340556761999949,39.22482384400007],[-9.339898625999979,39.23371362700004],[-9.342788402999929,39.241467302000046],[-9.335864587999936,39.273176500000034],[-9.33738484099996,39.283604241000035],[-9.341963531999966,39.28838862500004],[-9.340525671999956,39.291964918000076],[-9.346187830999952,39.30066742100007],[-9.348188751999942,39.31275256300006],[-9.357505378999974,39.32105896100006],[-9.359450934999927,39.32279355400004],[-9.359782720999931,39.328022227000076],[-9.360388067999963,39.337561977000064],[-9.365944842999966,39.34838071900003],[-9.375014690999933,39.35000717600008],[-9.39403008599993,39.35341712700006],[-9.407685297999933,39.36118630900006],[-9.398054643999956,39.369845370000064],[-9.379780078999943,39.36943215100007],[-9.374617397999941,39.371869719000074],[-9.370488217999934,39.36355592600006],[-9.37010859299994,39.36346170300004],[-9.357853570999964,39.36042001900006],[-9.341409646999978,39.366888636000056],[-9.341337033999935,39.36940341300004],[-9.341148200999953,39.37594318500004],[-9.328018672999974,39.37544275800008],[-9.325112923999939,39.375332006000065],[-9.302890959999957,39.385134279000056],[-9.291880471999946,39.39134782100007],[-9.274370071999954,39.40175540700005],[-9.23342648399995,39.43161880400004],[-9.213403958999947,39.453460644000074],[-9.211506228999951,39.456437546000075],[-9.207344661999969,39.462965653000026],[-9.202951866999967,39.47260694800008],[-9.195898657999976,39.475533546000065],[-9.176172149999957,39.49474134400003],[-9.169674285999974,39.50209500900007],[-9.155360716999951,39.50871055600004],[-9.148727409999935,39.50922553200007],[-9.148753203999945,39.50831973500004],[-9.148860893999938,39.504538119000074],[-9.141306131999954,39.50325398600006],[-9.137497912999947,39.505386834000035],[-9.136749872999928,39.51039154700004],[-9.141017059999967,39.51229833600007],[-9.141092724999965,39.51233214700005],[-9.144709202999934,39.52018209100004],[-9.131942378999952,39.52595491200003],[-9.12534179399995,39.537276732000066],[-9.116218592999928,39.54399347000003],[-9.115449105999971,39.544559986000024],[-9.077983058999962,39.58984647200003],[-9.07470594199998,39.593367009000076],[-9.074862259999975,39.59964662400006],[-9.080745354999976,39.60336682900004],[-9.08454943199996,39.605772357000035],[-9.085275151999952,39.61492449000008],[-9.072891854999966,39.647666263000076],[-9.072699971999953,39.64813668900007],[-9.051633314999947,39.699784341000054],[-9.050781048999966,39.711168678000035],[-9.050093132999962,39.720357662000026],[-9.040260312999976,39.741423033000046],[-9.030599514999949,39.767056972000034],[-9.007845826999926,39.80924634100006],[-8.992994796999938,39.83678278100007],[-8.968165600999953,39.886507890000075],[-8.932232573999954,39.965426655000044],[-8.930990465999969,39.968425344000025],[-8.927730934999943,39.97475948500005],[-8.894932676999929,40.04550315700004],[-8.888902634999965,40.06277387000006],[-8.867910459999962,40.11260069300005],[-8.863156274999938,40.13713209500003],[-8.86806398999994,40.14546094000008],[-8.87600624199996,40.16268361200008],[-8.905305498999951,40.178633758000046],[-8.907821731999945,40.18398049500007],[-8.90751677999998,40.19090416300003],[-8.874699881999959,40.25850099300004],[-8.84632635099996,40.326880893000066],[-8.82567630799997,40.38894060100006],[-8.790499232999935,40.49831367300004],[-8.78402916899995,40.520365051000056],[-8.766088570999955,40.58292838300008],[-8.759687259999964,40.60074588100008],[-8.750929565999968,40.62919285700008],[-8.748622701999977,40.64293137300007],[-8.748555817999943,40.64332969900005],[-8.742262531999927,40.64369737200008],[-8.738233958999956,40.64393273300004],[-8.744474998999976,40.62892790800004],[-8.748536151999929,40.62186606200004],[-8.749219478999976,40.60402318200005],[-8.74941845799998,40.59882748800004],[-8.753978347999976,40.580242499000065],[-8.752325274999976,40.57606524800008],[-8.748420359999955,40.57884254000004],[-8.746354724999946,40.591049213000076],[-8.73877538599993,40.60015701100008],[-8.735810793999974,40.60646231900006],[-8.738845930999958,40.61632653300006],[-8.736820827999964,40.625037805000034],[-8.73599730199993,40.62858031800005],[-8.735020734999978,40.630035027000076],[-8.730540208999969,40.63670928700003],[-8.731437118999963,40.639983474000076],[-8.733466433999979,40.647391526000035],[-8.72542417099993,40.645392284000025],[-8.723522136999975,40.644919454000046],[-8.718380913999965,40.64964394300006],[-8.716225832999953,40.65162433900008],[-8.719542023999963,40.65561240000005],[-8.711490142999935,40.65712173700007],[-8.70861032099998,40.655541957000025],[-8.700295666999978,40.65098079900008],[-8.687600288999931,40.63285526200008],[-8.683895390999965,40.62231852600007],[-8.684230300999957,40.63079957000008],[-8.684256708999953,40.63916962400003],[-8.69264118999996,40.64290151200004],[-8.697716366999941,40.65768560500004],[-8.675744447999932,40.678800455000044],[-8.671823065999945,40.68955738100004],[-8.665503003999959,40.69260159400005],[-8.666963776999978,40.69419734400003],[-8.67021313999993,40.69349133900005],[-8.672070134999956,40.69439631500006],[-8.669951827999967,40.70124012200006],[-8.676196989999937,40.71681853200005],[-8.67088641099997,40.719175266000036],[-8.666500086999974,40.71544308500006],[-8.64761793699995,40.726033459000064],[-8.63190612699998,40.72263054200005],[-8.623320452999963,40.71994444000006],[-8.610047057999964,40.72504389800008],[-8.616913489999945,40.72765036100003],[-8.610562295999955,40.731534983000074],[-8.61737411799993,40.73503457000004],[-8.634815609999976,40.723974345000045],[-8.64761793699995,40.72846417000005],[-8.669073536999974,40.72877247900004],[-8.674964518999957,40.735277462000056],[-8.67792058799995,40.74612762900006],[-8.676082547999954,40.75405078500006],[-8.682072693999942,40.771016839000026],[-8.681777566999926,40.77904568200006],[-8.669564819999948,40.79004167100004],[-8.655806678999966,40.79004310900007],[-8.660500173999935,40.793828451000024],[-8.64761793699995,40.80396845400003],[-8.635130181999955,40.813910615000054],[-8.621500280999953,40.81393918500004],[-8.629837521999946,40.81930755500008],[-8.629606348999971,40.823097337000036],[-8.629314518999934,40.827602048000074],[-8.63912604799998,40.82783714900006],[-8.645415188999948,40.83366544800003],[-8.656123695999952,40.813531358000034],[-8.662827789999938,40.81180198700008],[-8.664362213999937,40.822735615000056],[-8.66833782699996,40.81932586800008],[-8.674107301999982,40.791685108000024],[-8.688916941999935,40.78029772600007],[-8.700918435999938,40.75947460700007],[-8.696886122999956,40.73892794500006],[-8.699038206999944,40.71970132300004],[-8.716544899999974,40.70259804800003],[-8.720244191999939,40.69394372900007],[-8.719156922999957,40.68494761200003],[-8.718336353999973,40.67815819000003],[-8.72334146299994,40.67063144200006],[-8.737128908999978,40.65286238300007],[-8.740132985999935,40.64899077300004],[-8.748192252999957,40.64757682800007],[-8.754255869999952,40.64651300600008],[-8.746991854999976,40.67063144200006],[-8.734851602999981,40.70678596100004],[-8.706627889999936,40.78625868100005],[-8.695980654999971,40.81623931200005],[-8.689228146999938,40.83716965800005],[-8.668451699999935,40.900111329000026],[-8.662250149999977,40.92416710800006],[-8.65746551199993,40.947832378000044],[-8.653128771999945,40.964761520000025],[-8.648438927999962,40.98440794700008],[-8.64761793699995,40.999122284000066],[-8.644916720999959,41.01598885400006],[-8.644716002999928,41.02183637300004],[-8.64761793699995,41.03380643100007],[-8.648655122999969,41.03597406400007],[-8.65085423599993,41.04057002900004],[-8.656403766999972,41.04973527900006],[-8.65907058199997,41.06870019200005],[-8.659532638999963,41.092142325000054],[-8.659601106999958,41.09561601300004],[-8.660749627999962,41.09842649400008],[-8.66525157999996,41.10944297100008],[-8.664227384999947,41.11532245500007],[-8.664013380999961,41.11655096100003],[-8.66586835399994,41.12080851500008],[-8.670675821999964,41.13184266400003],[-8.669844675999968,41.13410207800007],[-8.66798857699996,41.13914775200004],[-8.670748125999978,41.14347438200008],[-8.680886388999966,41.15456013000005],[-8.685292101999948,41.159377584000026],[-8.686198181999941,41.162079540000036],[-8.689984520999928,41.173370513000066],[-8.707089136999969,41.18759349900006],[-8.71001586999995,41.19295203000007],[-8.716457462999927,41.20474588800005],[-8.716416847999938,41.21550359400004],[-8.71730858999996,41.22420539500007],[-8.728059876999964,41.242296502000045],[-8.724765531999935,41.25512847300007],[-8.728741280999941,41.27034009600004],[-8.732526190999977,41.28646846600003],[-8.739522376999957,41.305370622000055],[-8.73944116399997,41.322258385000055],[-8.739437942999928,41.32292814500005],[-8.739838006999946,41.33235147800008],[-8.746794502999933,41.33875668300004],[-8.748071455999934,41.33993243900005],[-8.75431111499995,41.34268363500007],[-8.754678229999968,41.34812037000006],[-8.756204519999926,41.35668869500006],[-8.766748590999953,41.37116673100007],[-8.763982746999943,41.37220674300005],[-8.76339683699996,41.37242705700004],[-8.76436823299997,41.372956937000026],[-8.76842176599996,41.37516807000003],[-8.77507645299994,41.39128951400005],[-8.789006590999975,41.41631446100007],[-8.78130377499997,41.43952624900004],[-8.77952152499995,41.44489691100006],[-8.776427954999974,41.47197131200005],[-8.777549371999953,41.47991319100004],[-8.779085387999942,41.48252630700006],[-8.790287555999953,41.50158377300005],[-8.787479752999957,41.51294862700007],[-8.792854275999957,41.52487682000003],[-8.792673247999971,41.527649180000026],[-8.792335674999947,41.535154815000055],[-8.792053318999933,41.54143276900004],[-8.798896942999932,41.56829509700003],[-8.804222997999943,41.582369795000034],[-8.805760238999937,41.586432126000034],[-8.806471643999942,41.59130113800006],[-8.807985820999932,41.60166450200006],[-8.811574118999943,41.61156754000007],[-8.820126013999982,41.63330017700008],[-8.826403678999952,41.64806537800007],[-8.826619165999944,41.66515988200007],[-8.826710670999944,41.672418994000054],[-8.83744580399997,41.682049902000074],[-8.84077797699996,41.68269478900004],[-8.846921839999936,41.68388383300004],[-8.848660069999937,41.68935706600007],[-8.850152383999955,41.69405597300005],[-8.855117977999953,41.699357546000044],[-8.858050514999945,41.70248850100006],[-8.869452357999933,41.72631469100003],[-8.88024635399995,41.75199810300006],[-8.877423350999948,41.76505890400006],[-8.87387328699998,41.77434848400003],[-8.87194640499996,41.779390626000065],[-8.872448302999942,41.78296607300007],[-8.87427572799993,41.795984377000025],[-8.86904315399994,41.80355870400007],[-8.866012594999972,41.80794554100004],[-8.865315058999954,41.81247324800006],[-8.869927708999967,41.81448252100006],[-8.870220365999955,41.815142525000056],[-8.87651851399994,41.829346188000045],[-8.875709287999939,41.83995682500006],[-8.87444117399997,41.84109717600006],[-8.869193214999939,41.84581640000005],[-8.867874899999947,41.850747857000044],[-8.871530104999977,41.86390114100004],[-8.867301676999944,41.86825610400007],[-8.863185838999925,41.87206646300007],[-8.842374779999943,41.884529093000026],[-8.83377947699995,41.89617345200003],[-8.830433162999952,41.90070682000004],[-8.825660511999956,41.90348064700004],[-8.81851501999995,41.906517146000056],[-8.811285341999962,41.908926724000025],[-8.806966961999933,41.91036599600005],[-8.801975555999945,41.91202960900006],[-8.787089738999953,41.91759399600005],[-8.773417561999963,41.92593409400007],[-8.767504188999965,41.92919135300008],[-8.762390919999973,41.93107183600006],[-8.759932674999959,41.93197657400003],[-8.757165775999965,41.933502152000074],[-8.754648096999972,41.935566046000076],[-8.747724116999962,41.94387044800004],[-8.747598576999962,41.94843841100004],[-8.747285509999926,41.95982986400003],[-8.743483609999942,41.965667524000025],[-8.730010209999932,41.97349152800007],[-8.718391082999972,41.977507966000076],[-8.681896131999963,41.990123347000065],[-8.662165743999935,42.00354391900004],[-8.658293083999979,42.021770383000046],[-8.65806375699998,42.023007258000064],[-8.657945518999952,42.02364497100007],[-8.656487521999964,42.03150866900006],[-8.651864542999931,42.033767142000045],[-8.64761793699995,42.03584174400004],[-8.644984213999976,42.03753029000006],[-8.63808475199994,42.043744520000075],[-8.63243670299994,42.04883162400006],[-8.606218445999957,42.05355446400006],[-8.60377068899993,42.05410739000007],[-8.598220408999964,42.05473707400006],[-8.594418669999925,42.055167985000026],[-8.590766762999976,42.05485166300008],[-8.578445188999979,42.052588626000045],[-8.578262276999965,42.05255503200004],[-8.555231087999971,42.05292513900008],[-8.546941378999975,42.054504559000065],[-8.52703368999994,42.06354347200005],[-8.52667515099995,42.070976330000065],[-8.526362241999948,42.07746322600008],[-8.49653237299998,42.07977290700006],[-8.453901650999967,42.082901089000075],[-8.440616538999961,42.08201999500005],[-8.437308746999975,42.07909009100007],[-8.434376032999978,42.07743862400008],[-8.43392225699995,42.076874212000064],[-8.432888200999969,42.07558804000007],[-8.432065122999973,42.073592820000044],[-8.430152765999935,42.07256701000006],[-8.428253394999956,42.07225411100006],[-8.42152393699996,42.07288361500008],[-8.418054697999935,42.074334247000024],[-8.403912143999946,42.080247833000044],[-8.391662402999941,42.07817446800004],[-8.390270082999962,42.07720619600008],[-8.388617730999954,42.07605708700004],[-8.384153362999939,42.077128007000056],[-8.380028940999978,42.07811738000004],[-8.376368940999953,42.08208405800008],[-8.369969714999968,42.08901948600004],[-8.354555257999948,42.09025681300005],[-8.34688510799998,42.08747350500005],[-8.338941488999978,42.08459096300004],[-8.330045322999979,42.08595654000004],[-8.328225644999975,42.089706844000034],[-8.32524783599996,42.09584402400003],[-8.318479206999939,42.10355924400005],[-8.30211442999996,42.10521227600003],[-8.301463990999935,42.10527797800006],[-8.290193621999947,42.11217116200004],[-8.288857935999943,42.113084283000035],[-8.274894639999957,42.12263007700005],[-8.273231537999948,42.122363593000046],[-8.26589665199998,42.12118830400004],[-8.25771352299995,42.122993327000074],[-8.25632677699997,42.12721079600004],[-8.256477426999936,42.13231256500006],[-8.256531846999962,42.13415549900003],[-8.243497182999931,42.13911646400004],[-8.236022067999954,42.13675979200008],[-8.224885392999965,42.13324874300008],[-8.20429588899998,42.14464211100005],[-8.19900032399994,42.15441906400008],[-8.189609183999949,42.13713843200003]]],[[[-7.950635166999973,36.98208128700003],[-7.953990791999956,36.98000608000007],[-7.959213843999976,36.98388649100008],[-7.955978370999958,36.98512767500006],[-7.950635166999973,36.98208128700003]]],[[[-7.966423406999979,36.989935752000065],[-7.969576895999978,36.98897769600006],[-7.974118413999975,36.99336300400006],[-7.96920475099995,36.99405541500005],[-7.966423406999979,36.989935752000065]]],[[[-7.847057026999948,36.984750484000074],[-7.857777005999935,36.98115869500003],[-7.854919650999932,36.986329494000074],[-7.854495469999961,36.98657692000006],[-7.844105060999937,36.99263766000007],[-7.834642678999955,36.99449495700003],[-7.82720747299993,36.99595435600003],[-7.811565530999928,37.00344914600004],[-7.808053965999932,37.006071158000054],[-7.80632234899997,37.00657568400004],[-7.802582597999958,37.00766530100003],[-7.803416163999941,37.00560052700007],[-7.80632234899997,37.003313416000026],[-7.809354402999929,37.00203034200007],[-7.822703840999964,36.99291015400007],[-7.834817445999931,36.98885142300003],[-7.847057026999948,36.984750484000074]]],[[[-7.81800014099997,37.009113210000066],[-7.850678602999949,37.000472728000034],[-7.856696995999926,37.002313462000075],[-7.855245932999935,37.010930933000054],[-7.853108741999961,37.01183809100007],[-7.824041983999962,37.02417584800003],[-7.82008398399995,37.02535018000003],[-7.814156084999979,37.025980161000064],[-7.812580393999951,37.025160380000045],[-7.812580393999951,37.023523142000045],[-7.813146758999949,37.021566464000045],[-7.813211186999979,37.01999055700003],[-7.812643322999975,37.01822400400005],[-7.81283061299996,37.01704960200004],[-7.813855878999959,37.011897635000025],[-7.813969823999969,37.011821078000025],[-7.81800014099997,37.009113210000066]]],[[[-8.795842944999947,37.83236421500004],[-8.797780634999981,37.83081488700003],[-8.801955512999939,37.834843344000035],[-8.796859020999932,37.836531767000054],[-8.795883233999973,37.83435319700004],[-8.795216656999969,37.83286497900008],[-8.795842944999947,37.83236421500004]]],[[[-8.754783479999958,38.49912745300003],[-8.756169911999962,38.49607322300005],[-8.76220109299993,38.49663466700008],[-8.758324022999943,38.500788861000046],[-8.754783479999958,38.49912745300003]]],[[[-9.073374451999939,38.813135129000045],[-9.086171194999963,38.80378971700003],[-9.082412433999934,38.82002037900003],[-9.06301554099997,38.85090521700005],[-9.029378037999948,38.87227784500004],[-9.027106175999961,38.87372134300006],[-9.028120412999954,38.86698793100004],[-9.046018447999927,38.83311311400007],[-9.073374451999939,38.813135129000045]]],[[[-9.00398888799998,38.888458798000045],[-9.011069534999933,38.885282138000036],[-9.008967543999972,38.90089359000007],[-9.00727547699995,38.913460549000035],[-8.998037993999958,38.925337521000074],[-8.996038620999968,38.91828583300003],[-8.997715763999963,38.90770650500008],[-8.999272378999933,38.89788745900006],[-9.00398888799998,38.888458798000045]]],[[[-9.502263168999946,39.41812835200005],[-9.511182961999964,39.40992878800006],[-9.518033303999971,39.41059876700007],[-9.510397732999934,39.42039252200004],[-9.502263168999946,39.41812835200005]]],[[[-8.679780903999927,40.711234681000064],[-8.674698457999966,40.70009606800005],[-8.679737374999945,40.679016545000025],[-8.701794182999947,40.66289042400007],[-8.705741814999953,40.662586892000036],[-8.72149642599993,40.66137552300006],[-8.710429312999963,40.674111562000064],[-8.70849086499993,40.67634232900008],[-8.711337791999938,40.68538076600004],[-8.70689583199993,40.70659563300006],[-8.70323326099998,40.70861232500005],[-8.696323173999929,40.70507669400007],[-8.679780903999927,40.711234681000064]]],[[[-8.689801583999952,40.71547109100004],[-8.692953992999946,40.711747753000054],[-8.69697700699993,40.71379442600005],[-8.693613374999927,40.71721683100003],[-8.689801583999952,40.71547109100004]]],[[[-8.688942170999951,40.721321129000046],[-8.690726237999968,40.721069818000046],[-8.68636646799996,40.73259828100004],[-8.68508388999993,40.73200097200004],[-8.683233549999954,40.72854825300004],[-8.683389759999955,40.72694550500006],[-8.684890275999976,40.72534296900005],[-8.688942170999951,40.721321129000046]]],[[[-8.633013890999962,40.82433847100003],[-8.635422128999949,40.82029920900004],[-8.641175273999977,40.820649813000045],[-8.637297193999927,40.824395579000054],[-8.633013890999962,40.82433847100003]]],[[[-8.70992976499997,41.17966212300007],[-8.709934919999966,41.179629254000076],[-8.710075939999967,41.17970042200005],[-8.714548354999977,41.18195749700004],[-8.712168051999981,41.185674662000054],[-8.709064352999974,41.18517964900008],[-8.70992976499997,41.17966212300007]]]]}}]}